Name,Street,City,Region,Postal Code,Phone,Fax,Email,Invoice Style
32 Canadian Forces Health Services Centre,"Government of Canada
1 Yukon Lane",Toronto,ON,M3K 0A1,,,,Generic Invoice
AARON WAXMAN & ASSOIATES,"1120 FINCH AVE WEST 
SUITE 500",TORONTO,ON,M3J 3H7,(416) 661-4878,(416) 661-4808,,Generic Invoice
"ABOSAHMIN, SHUKRI AMRO G.",,,ON,,,,,Generic Invoice
ACCLAIM ABILITY MANAGEMENT,"82 PETER STREET, 4TH FLOOR",TORONTO,ON,M5V 2G5,(416) 486-9706,(416) 486-9254,,Generic Invoice
"Acclaim, Ability Management Inc","Attn: Suzanne Spencer
Fax: 1-866-486-8663",,,,,,,Generic Invoice
ACE INA Insurance,"25 Main Street West
Suite 1810",Hamilton,ON,L8P 1H1,,,,Generic Invoice
Actra Fraternal Benefits Society,1000 Yonge St.,Toronto,ON,M4W 2K2,,,,Generic Invoice
Adler Bytensky Prutschi Shikhman,5000 Yonge St Suite 1708,Toronto,ON,M2N 7E9,,,,Generic Invoice
Aetna International,,,ON,,,,,Generic Invoice
AGS Automotive Systems,675 Progress Ave,Scarborough,ON,M1H 2W9,(416) 438-6650 Ext. 2615,(416) 341-8766,,Generic Invoice
AIG Travel,"Japanese Assistance Department
2929 Allen Parkway, 14th Floor",Houston,TX,77019,,,,Generic Invoice
Allianz Canada,"130 Adelaide St. West
Suite 1600",Toronto,ON,M5H 3P5,(416) 961-5015,,,AISI Invoice
Allianz Global Risks US Insurance Company,,,ON,,,,,Generic Invoice
Allstate Insurance,311 Matheson Blvd,Mississauga,ON,L4Z 1X8,(905) 897-5318,(905) 897-5313,,AISI Invoice
Allstate Insurance Co.,"27 Allstate Parkway
Suite 100",Markham,ON,L3R 5P8,(905) 948-3558,(905) 475-4957,,AISI Invoice
Apex Occupational Health Solutions Inc.,"1601 River Road E., Unit 102",Kitchener,ON,N2A 3Y4,,,,Generic Invoice
Aronovitch Macaulay Rollo LLP,251 King Street East,Toronto ,ON,M5A 1K2,(416) 369-9393,(416) 369-0665,,Generic Invoice
Ascentus Insurance,2225 Erin Mills Parkway Suite 1000,Mississauga,ON,L5K 2S9,(905) 403-2333 Ext. 4659,(905) 403-2326,,AISI Invoice
Assessment Rehabilitation Services Inc.,"150 Consumers Road, Suite 500",Toronto,ON,M2J 1P9,,,,Generic Invoice
Assistplus,"Claim Services
27 Allstate Parkway #100",Markham,ON,L3E 5P8,(905) 940-4250,,,AISI Invoice
Atlas Copco,1025 Tristar Drive,Mississauga,ON,L5T 1W5,,,,Generic Invoice
Auger Hollinsworth Professional Corp,,,ON,,,,,Generic Invoice
AVIVA Canada,2206 Eglinton Ave. East,Scarborough,ON,M1L 4S8,(866) 979-9003,(866) 979-9004,"lyn_barnes@avivacanada.com
lyn_barnes@avivacanada.com",AISI Invoice
AXA Assistance,PO Box 261570,Miami,FL,,(312) 341-2892,,,Generic Invoice
AXA Assistance,PO Box 260248,,FL,33126,,,,Generic Invoice
AXA Assistance Germany,"INTER PARTNER ASSISTANCE SERVICE GMBH
Grosse Scharrnstrasse 36
D-15230 Frankfurt/Oder",,,,,,,Generic Invoice
AXA Insurance,"5700 Yonge St.
Suite 1400",North York,ON,M2M 4K2,(416) 218-4188,(416) 218-5744,,AISI Invoice
AXA PPP International,PO BOX 981603 ,EL PASO ,,79998,,,,Generic Invoice
AZEVEDO & NELSON; BARISTER & SOLITORS,892 COLLEGE STREET,TORONTO,ON,M6H 1A4,(416) 533-7133,(416) 533-3114,,Generic Invoice
Azezedo ,60 Yonge Street,Toronto,ON,M5E 1H5,(416) 596-3900 Ext. 5020,(416) 350-6600,,Generic Invoice
Azezedo & Nelson,892 College St,Toronto,ON,M6H 1A4,(416) 533-7133,(416) 533-3114,,Generic Invoice
B&N Discharge Report Due,,,ON,,,,,Generic Invoice
B&N Progress Report Due,,,ON,,,,,Generic Invoice
B2B Trust,"130 Adelaide Street, Suite 200",Toronto,ON,M5H 2P5,,,,Generic Invoice
BACHMANN PERSONAL INJURY LAW PROFESSIONAL CORP,PO box 156,Simcoe,ON,N3Y 4L1,,,,Generic Invoice
Banyan,,,ON,,,,,Generic Invoice
BARMANIA LAWYERS,"SUITE 203, BERKELEY CASTLE",TORONTO,ON,M5A 4J5,(416) 777-2300,(416) 777-2301,,Generic Invoice
Barrister At Law,"65 Queen St West, Suite 1500, P.O. Box 81, The Thomson Building",Toronto,ON,M5H 2M5,,,,Generic Invoice
Barristers & Solicitors,117 Hughson St. South,Hamilton,ON,L8N 1G7,(905) 525-2341,,,Generic Invoice
Baycrest,3460 Bathurst Street,Toronto,ON,M6A 2E1,(416) 785-2500 Ext. 3,,,Generic Invoice
Beament Green,"979 Wellington Street W.,",Ottawa,ON,K1Y 2X7,,,,Generic Invoice
Bellair Direct Insurance,5775 Yonge St.,North York,ON,M2M 4J1,,,,AISI Invoice
Bellair Direct Insurance,"700 University Ave. 
Suite 1100",Toronto,ON,M5G 0A2,(416) 228-2656,,,AISI Invoice
Belvedere Heights,21 Belvedere Avenue,Parry Sound,ON,P2A 2A2,,,,Generic Invoice
Bend All Automobile Inc.,575 Waydom Drive,Ayr,ON,N0B 1E0,(519) 623-2001,(519) 624-6551,,Generic Invoice
Benson Percival Brown LLP,,,ON,,,,,Generic Invoice
"BERGEL, MAGENCE, LLP",1018 FINCH AVENUE WEST,TORONTO,ON,M3J 3L5,(416) 665-2000,(416) 663-2348,,Generic Invoice
"Bergmanis, Preyra LLP",700 Lawrence Ave West Suite 400,Toronto,ON,M6A 3B4,,,,Generic Invoice
Best Doctors,"145 King Street W, Ste 700",Toronto,ON,M5H 1J8,,,,Generic Invoice
BF&M,,,ON,,,,,Generic Invoice
BIALKOWSKI . LEONE LAW,"80 RICHMOND STREET WEST, SUITE 300",TORONTO,ON,M5H 2A4,(416) 363-5151,,,Generic Invoice
BIKUR CHOLIM,506 Coldstream Ave.,Toronto,ON,M6B 2K6,,,,Generic Invoice
Blue Cross,"185 The West Mall, Suite 610
PO Box 2005",Etobicoke,ON,M9C 5P1,,,,AISI Invoice
Body ‘n Balance Physiotherapy,707 River Road West,Wasaga Beach,ON,L9Z 1N7,,,,Generic Invoice
BOGOROCH & ASSOCIATES,"Sunlife Financial Tower
150 King Street West, Suite 1707",Toronto,ON,M5H 1J9,(416) 599-1700,(416) 599-1800,,Generic Invoice
BOLANDHOWE LLP,"130 Industrial Parkway North, ",Aurora,ON,L4G 4C3,(905) 841-5717,(905) 841-7128,,Generic Invoice
BOT Construction (Ont) Ltd.,593 Barrick Road,Port Colbourne,ON,L3K 4C1,,,,Generic Invoice
"BOUGADIS, CHANG LLP","360 Bay Street, Suite 600",Toronto,ON,M5H 2V6,(416) 703-2402 Ext. 307,(416) 703-2406,,Generic Invoice
"BOUGADIS, CHANG LLP","55 ADELAIDE STREET, STE 300",TORONTO,ON,M5C 1K6,(416) 703-2402,(416) 703-2406,,Generic Invoice
Brantford Police Service,"P.O. Box 1116
344 Elgin St.",Brantford,ON,N3T 5T3,,,,Generic Invoice
Brauti Thorning Zibarras LLP,,,ON,,,,,Generic Invoice
Brookside Youth Centre,390 King Street East ,Cobourg,ON,K9A 4K6,,,,Generic Invoice
Bruce Power,"P.O. Box 1540
177 Tie Rd.
R.R. 2",Tiverton,ON,N0G 2T0,,,,Generic Invoice
Bruyere Continuing Care,43 Bruyere Street,Ottawa,ON,K1N 5C8,,,,Generic Invoice
"Bupa Global, Victory House","Trafalgar Place, Brighton
East Sussex
BN1 4FY, United Kingdom",,,,,,,Generic Invoice
Business Development Bank of Canada ,"50 Queen Street North, Suite 110",Kitchener,ON,N2H 6P4,,,,Generic Invoice
Business Development Bank of Canada ,"121 King Street West
Suite 1200",Toronto,ON,M5H 3T9,,,,Generic Invoice
CAA Insurance,60 Commerce Valley Dr. E.,Thornhill,ON,L3T 7P9,(905) 771-3007,(905) 771-3006,,AISI Invoice
Cadbudy,277 GLADSTONE AVE,TORONTO,ON,M6J 3L9,(416) 530-4055,(416) 583-4169,,Generic Invoice
CALENTI LAW,1 ST. CLAIR AVENUE WEST SUITE 303,TORONTO,ON,M4V 1K7,(416) 537-6122,(416) 537-9266,reception@calentilaw.com,Generic Invoice
Cambrian College,1400 Barrydowne Rd ,Sudbury,ON,P3A 6B9,,,,Generic Invoice
CAMH,1001 Queen Street West,Toronto,ON,M6J 1H4,(416) 535-8501,,,Generic Invoice
Canada Bread - Etobicoke,130 Cawthra Ave,Toronto,ON,M6N 3C2,(416) 767-8367,(416) 767-1896,,Generic Invoice
Canada Bread - Etobicoke,35 Rakely Court,Etobicoke,ON,M9C 5A5,(416) 622-5255 Ext. 222,,,Generic Invoice
Canada Bread Company,2 Fraser Avenue,Toronto,ON,M6K 1Y6,,,,Generic Invoice
Canada Bread Company Limited,1385 Sandhill Drive,Ancaster,ON,L9G 4V5,(905) 533-0443,,,Generic Invoice
Canada Bread Company Ltd,10 Four Season's Place,Etobicoke,ON,M9B 6H7,416 559 0540,,,Generic Invoice
CANADA LIFE ASSURANCE COMPANY,P.O.BOX 6000,WINNIPEG,MB,R3C 3A5,(204) 946-4680,(204) 946-4030,,Generic Invoice
Canada Pension Plan Medical Expertise Division,333 River Rd. Tower A,Ottawa,ON,K1A 0L1,,,,Generic Invoice
Canada Revenue Agency,"Kathy Mawbey
4 Robert Speck Parkway Suite 500",Mississauga,ON,L4Z 1S1,(905) 277-6387,(905) 615-2298,,Generic Invoice
Canadian Association of Schools of Nursing,"1145 Hunt Club Road, Suitte 450",Ottawa,ON,K1V 0Y3,,,,Generic Invoice
Canadian Forces Health Service Centre,"CFB Kingston
PO Box 17000, Stn Forces",Kingston,ON,K7K 7B4,,,,Generic Invoice
Canadian General Tower Ltd.,52 Middleton Street,Cambridge,ON,N1R 5T6,,,,Generic Invoice
Canadian Pacific Railway,2025 McCowan Rd,Scarborough,ON,M1S 5K3,,,,Generic Invoice
Canadian Physician and Surgeons of Ontario,,,ON,,,,,Generic Invoice
"CAPP, SHUPAK","2 ST. CLAIR AVENUE WEST, SUITE 1703",TORONTO,ON,M4V 1L5,(416) 323-1116,(416) 323-0697,lwright@caooshupak.com,Generic Invoice
Caprara Brown LLP,700-40 Eglinton Ave East,Toronto,ON,M4P 3A2,,,,Generic Invoice
CARIATI LAW PROFESSIONAL CORPORATION,"2600 Skymark Avenue, Building 12, Suite 103",Mississauga,ON,L4W 5B2,,,,Generic Invoice
CARRANZA LLP,"1280 FINCH AVE. WEST
SUITE 200",TORONTO,ON,M3J 3K6,(416) 633-1065,(416) 633-9782,,Generic Invoice
CASSELS BROCK & BLACKWELL LLP,"2100 SCOTIA PLAZA
40 KING STREET WEST",TORONTO,ON,M5H 3C2,(416) 869-5300,(416) 360-8877,WWW.CASSELSBROCK.COM,Generic Invoice
Catholic Children's Aid Society of Toronto,26 Maitland Street,Toronto,ON,M4Y 1C6,(416) 395-1663,(416) 395-1551,,Generic Invoice
Central Toronto Community Health Centres,168 Bathurst Street,Toronto,ON,M5V 2R4,,,,Generic Invoice
"Centre for Employee Health, Safety and Wellness","Health and Safety Services
33 King Street West, 2nd Floor",Oshawa,ON,L1H 8H5,,,,Generic Invoice
Centre for Rehabilitation and Health,"2482 Yonge Street, PO Box 45103",Toronto,ON,M4P 3E3,,,,Generic Invoice
Centre of Forensic Services,25 Grosvenor Street,Toronto,ON,M7A 2G8,(416) 314-3127,(416) 314-0916,,Generic Invoice
Certas Direct Insurance,3 Robert Speck Parkway,Mississauga,ON,L4Z 3Z9,(888) 277-8726,,,AISI Invoice
CHAMBER OF COMMERCE,,,ON,,,,,Generic Invoice
CHAMBER OF COMMERCE GROUP INSURANCE PLAN,582 KING EDWARD ST,WINNIPEG,MB,R3H 0P1,1-800-885-3365,,,Generic Invoice
Chartis Insurance Company of Canada,"Accident & Health Claims Dept
145 Wellington  St. W",Toronto,ON,M5J 1H8,,,,Generic Invoice
Chieftain Insurance,8133 Warden Ave. Suite 500,Markham,ON,L6G 1B3,,,,Generic Invoice
CHUBB INSURANCE COMPANY OF CANADA,,,ON,,(519) 578-5540,(519) 578-2868,,Generic Invoice
Cigna,300 Bellevue Parkway,Wilmington,DE,19809,,,,Generic Invoice
City of Brampton,2 Wellington St. W,Brampton,ON,L6Y 4R2,,,,Generic Invoice
City of Greater Sudbury,"PO Box 5000 Stn A
200 Brady Street",Sudbury,ON,P3A 5P3,(705) 674-4455,(706) 673-3094,,Generic Invoice
City of Greater Sudbury,960 Notre Dame ,Sudbury,ON,P3A 2T4,,,,Generic Invoice
CITY OF KITCHENER,200 KING ST WEST,KITCHENER,ON,N2L 3G9,,,,Generic Invoice
CITY OF KITCHENER,270 STRASBURG RD,KITCHENER,ON,N2E 3M6,,,,Generic Invoice
City of Kitchener - Human Resources,"Box 1118, 200 King Street West",Kitchener,ON,N2G 4G7,,,,Generic Invoice
City Of Stratford,"1 Wellington Street, PO Box 818",Stratford,ON,N5A 6W1,(519) 271-0250,(519) 271-3611,,Generic Invoice
City of Timmins,220 Algonquin Boulevard East,Timmins,ON,P4N 1B3,,,,Generic Invoice
City of Toronto,"Employee Health & Rehab - City Hall Lower level East, 100 Queen St. W",Toronto,ON,M5H 2N2,(416) 392-6649,(416) 392-1788,,Generic Invoice
City of Toronto,"Metro Hall
55 John Street, 26th Floor, Stn  1260",Toronto,ON,M5V 3C6,,,,Generic Invoice
City of Toronto,"Transportation Services
40 Toryork Drive",Toronto,ON,M9L 1X6,,,,Generic Invoice
City of Toronto,"Client Special Services Unit
100 Cosilium Place, 11th floor",Toronto,ON,M1H 3E3,,,,Generic Invoice
City of Welland,60 East Main Street,Welland,ON,L3B 3X4,(905) 735-1700,(905) 734-7608,,Generic Invoice
CLAIM SECURE,1 CITY CENTRE DRIVE SUITE 620,MISSISSAUGA,ON,L5B 1M2,(905) 949-2322,(905) 949-3029,,AISI Invoice
CLAIMS PRO,"320 PINEBUSH ROAD,UNIT 9",CAMBRIDGE,ON,N1T 1Z6,(519) 620-1558,(519) 620-1714,,AISI Invoice
CLAIMSPRO,1550 ENTERPRISE ROAD SUITE 310,MISSISSAUGA,ON,L4W 4P4,(905) 564-0654,(905) 565-0009,,Generic Invoice
Clear Path Employer Services Inc.,"295 Thompson Drive, Unit 2",Cambridge,ON,N1T 2B9,,,,Generic Invoice
CLONOFERO LAW FIRM,55 ADELAIDE STREET SUITE 300,TORONTO,ON,M5C 1K6,(416) 703-2077,(416) 703-3357,,Generic Invoice
Co-operators Insurance,110-7300 Warden Ave,Markham,ON,L3R 9Z6,(905) 946-6442,,,AISI Invoice
CO-OPPERATORS INSURANCE COMPANY,"98 MACDONELL ST
SUITE 200",QUELPH,ON,N1H 8K9,(519) 618-1210,,,Generic Invoice
Coca Cola Ltd.,42 Overlea Blvd,Don Mills,ON,M4H 1B8,(416) 758-7635,,,Generic Invoice
Coca-Cola Ltd,3389 Steeles Ave East,Toronto,ON,M2H 2S8,(905) 565-7027 Ext. 237,(905) 565-7073,,Generic Invoice
College of Nurses of Ontario,101 Davenport Rd. ,Toronto,ON,M5R 3P1,,,,Generic Invoice
College of Physicians nad Surgeons of Ontario,80 College Street,Toronto,ON,M5G 2E2,,,,Generic Invoice
Colonial Medical Insurance Co. LTD.,"Health Insurance & Employee Benefit
Jardine House, 33-35 Reid Street HM 12",Bermuda,,,,,,Generic Invoice
Compass Minerals Goderich Plant,"245 Regent Street
PO Box 100",Goderich,ON,N7A 3Y5,,,,Generic Invoice
CompreMed Canada Inc,665 Davis Drive Suite LL1,Newmarket,ON,L3Y 2R2,,,,Generic Invoice
CONSENT TO SURGERY,,,ON,,,,,Generic Invoice
Consolidated Fastfrate Inc,9701 Highway 50,Woodbridge,ON,L4H 2G4,(905) 839-2600 X256,(905) 856-4515,,Generic Invoice
"Consulate General, United Arab Emirates, Toronto","160 Bloor Street East, Suite 1404",Toronto,ON,M4W 1B9,,,,Generic Invoice
Cooperator's General Insurance Company,1720 Bishop Street,Cambridge,ON,N1T 1J4,(519) 623-8405,,,Generic Invoice
Coseco Insurance,5600 Cancross Crt.,Mississauga,ON,L5R 3E9,,,,AISI Invoice
Coughlin and Associates,466 Tremblay Road,Ottawa,ON,K1G 3R1,(613) 231-2266,,,Generic Invoice
County of Renfrew,9 International Drive,Pembroke,ON,K8A 6W5,(613) 735-3675,,,Generic Invoice
Cowan Group Assurance ,700-1420 place Blair ,Ottawa,ON,K1J 9L8,,,,Generic Invoice
Cowan Insurance Group,"705 Fountain Street North
PO Box 1510",Cambridge,ON,N1R 5T2,,,,Generic Invoice
CRAWFORD  & COMPANY CANADA,150 KENT STREET 1ST FLOOR,LONDON,ON,N6A 1L3,1-800-681-8812,(519) 432-6053,,AISI Invoice
Crawford & Company (Canada) Inc,90 Matheson Blvd. West,Mississauga,ON,L5R 3R3,,,,Generic Invoice
Crawford & Company (Canada) Inc.,539 Riverbend Drive,Kitchener ,ON,N2K 3S3,,,,Generic Invoice
Crawford Adjusters,38 James St. South,Hamilton,ON,L8P 4W6,,,,AISI Invoice
Crawford Canada,1400- 185 The West Mall,Etobicoke,ON,M9C 5L5,(416) 620-7799,(416) 620-7511,,AISI Invoice
Criminal Injuries Compensation Board,"439 University Avenue, 4th Floor",Toronto,ON,M5G 1Y8,(416) 326-2900,,,Generic Invoice
CUMIS Life Insurance Company,"PO Box 5065
151 North Service Road",Burlington,ON,L7R 4C2,,,,Generic Invoice
Cunningham & Lindsay,"460 Frederick Street, Suite 202",Kitchener,ON,N2H 2P5,(519) 578-5020,,,AISI Invoice
CUPE Local 79,34 St. Patrick Street,Toronto,ON,M5T 1V1,,,,Generic Invoice
CVVRS - March of Dimes Canada,"1550 Upper James
Suite 302",Hamilton,ON,L9B 2L6,,,,Generic Invoice
"D & R Disability Legal Services, Professional Corporation","3621 Hwy 7 East, Suite #301",Markham,ON,L3R 0G6,(416) 298-0606,(416) 298-3514,,Generic Invoice
David Charney Barrister & Solicitor,,,ON,,,,,Generic Invoice
De Rose Barristers & Solicitors,1280 Finch Ave West Suite 508,Toronto,ON,M3J 3K6,,,,Generic Invoice
DE SOUSA WOLOSHYN,778 COLLEGE STREET MAIN FLOOR,TORONTO,ON,M6G 1C6,(647) 350-0200,,,Generic Invoice
Department of Justice,"130 King St. W., Suite 3400",Toronto,ON,M5X 1K6,,,,Generic Invoice
Department of National Defence: CFB Borden,"Health Services Centre
P.O. Box 1000, Station Main, 30 Ortona Rd",Borden,ON,L0M 1C0,,,,Generic Invoice
"Deputy Registrar, Assessment and Valuation Assessment Review Board (ARB) - Case Management","Environment Land Tribunals Ontario (ELTO)
655 Bay Street 1500",Toronto,ON,M5G 1E5,,,,Generic Invoice
Desjardins Insurance,"Group Health Claims
P.O. Box 4358 Station A",Toronto,ON,M5W 3M3,(416) 926-2700,(416) 926-2909,,AISI Invoice
Desjardins Insurance,"Disability Claims Specialist
Disability Claims Department
PO BOX 4593 Stn A",Toronto,ON,M5W 4X7,,,,Generic Invoice
Deutschmann & Associates Professional Corp,10 Duke st West,Kitchener,ON,N2H 3W4,(519) 722-7774,,,Generic Invoice
"DEVEREAUX, STOKES, NOLAN, FERNANDEZ & LEONARD, P.C.","133 SOUTH 11TH STREET, SUITE 350",ST. LOIUS,MO,63102,(314) 621-3743,(314) 621-5705,,Generic Invoice
Diamond & Diamond,5075 Yonge St Unit 701,Toronto,ON,M2N 6C6,,,,Generic Invoice
Dibrina Sure Group Inc.,"62 Frood Road, Suite 302",Sudbury,ON,P3C 4Z3,(705) 688-9393,(705) 698-9060,,Generic Invoice
Dietrich Law Office,141 Duke St E,Kitchener,ON,N2H 1A6,,,,Generic Invoice
Dikla Insurance Co Ltd,"3 Abba Hilel St POB 2000
52118 Ramat-Gan",,,,,,,Generic Invoice
Direct Energy,80 Allstate Parkway,Markham,ON,L3R 6H3,(905) 943-6470,(905) 943-6412,,Generic Invoice
Dominion of Canada,"8133 Warden Ave.
Suite 500",Markham,ON,L6G 1B3,,,,AISI Invoice
Dominion of Canada,"300 Consillium Place
Suite 300",Scarborough,ON,M1H 3G2,(416) 290-3133,(416) 296-0098,,Generic Invoice
Domtar,1 Station Rd,Espanola,ON,P6E 1R5,,,,Generic Invoice
Dumas Contracting,PO Box 1600,Timmins,ON,P4N 7W7,,,,Generic Invoice
Durham Catholic District School Board,650 Rossland Road West,Oshawa,ON,L1J 7C4,,,,Generic Invoice
East End Community Health,1619 Queen Street East,Toronto,ON,M4L 1G4,(416) 778-5858,,,Generic Invoice
Echelon General Insurance Company,"2680 Matheson Boulevard, Suite 300",Mississauga,ON,L4W 0A5,,,,Generic Invoice
Economical Insurance,5700 Yonge Street Suite 1600,Toronto,ON,M2M 4K2,(416) 590-0035,(416) 590-9923,,AISI Invoice
Economical Insurance,"148 Fullarton Street
Suite 1200",London,ON,N6A 4Z4,1-800-577-7717,(519) 661-0309,,AISI Invoice
Economical Insurance,343 Pretson St Suite 500,Ottawa,ON,K1S 1N4,,,,AISI Invoice
Economical Insurance,590 Riverband Drive,Kitchener,ON,N2K 3S2,(519) 570-8322 Ext. 3215,,,AISI Invoice
Economical Insurance,"746 Roseline Rd. E., Suite 210",London,ON,N6C 2R5,,,,AISI Invoice
Economical Insurance Company,"120 King Street West, Suite 750",Hamilton,ON,L8P 4V2,(877) 277-2656,,,AISI Invoice
Edsonlegal,80 Carlauren Road Unit 23,Woodbridge,ON,L4L 7Z5,(416) 363-3766,,,Generic Invoice
Edward Lawrence,"
Living Benefit Claims Adjudicator – Manulife Financial
2 Queen Street East, PO Box 4606, Stn A
Living Benefit Claims",Toronto,ON,M5W 4Z2,1-866-575-0684,1-866-905-1112,,Generic Invoice
Elementary Teachers' Federation of Ontario,136 Isabella Street,Toronto,ON,M4Y 1P6,,,,Generic Invoice
Elgin Middlesex Department Centre,"Ministry of Government and Consumer Services
711 Exeter Road",London,ON,N6E 1L3,(516) 686-1922,(519) 686-5265,,Generic Invoice
ELLIOT BERLIN BARRISTER & SOLICITOR,"16 ESNA PARK DRIVE
SUITE 101",MARKHAM,ON,L3R 5X1,(905) 470-9444,(905) 470-9449,,Generic Invoice
Embassy of Libya - Ottawa,"81 Metcalfe Street, Suite 1000",Ottawa,ON,K1P 6K7,,,,Generic Invoice
Embassy of the State of Kuwait Health Division,4301 Connecticut Ave NW Suite 330,Washington,DC,,(202) 686-4304,(202) 686-4308,,Generic Invoice
Embassy of the United Arab Emirates,"Military Attache Office Health Section
3522 International CT. NW Suite 300",Washington,DC,20008,(202) 243-4365,,,Generic Invoice
EMDC,711 Exeter Road,London,ON,N6E 1L3,(519) 686-1922,(519) 686-5265,,Generic Invoice
EMERGIS REFERRAL TO CA,,,ON,,,,,Generic Invoice
EMPIRE LIFE,259 KING STREET EAST,KINGSTON,ON,K7L 3A8,1-800-267-0215,1-888-841-9145,,AISI Invoice
Environ EC Canada Inc,2400 Meadowpine Blvd.,MIssisauga,ON,L5N 6S2,,,,Generic Invoice
Environment Canada,4905 Dufferin St Main Level,Downsview,ON,M3H 5T4,,,,Generic Invoice
Environment Canada - ACEMD,"Procurement & COntracting
867 Lakeshore Road, PO Box 5050",Burlington,ON,L7R 4A6,,,,Generic Invoice
Equitable Life Insurance Company of Canada,"One Westmount Road North
P.O. Box 1603, Stn Waterloo",Waterloo,ON,N2J 4C7,(519) 886-5110,,,Generic Invoice
Europ Assist,"International Claims Services
26000 Towne Center Drive, Suite 130",Foothill Ranch,CA,92610,,,,Generic Invoice
Europ Assistance,"GCS - ITPA Division
PMB 296
266 Elmwood Ave",Buffalo,NY,14222,,,,Generic Invoice
Europ Assistance,"EA GCS - ITPA Division
150 Commerce Valley Drive West
9th Floor ",Thornhill,ON,L3T 7Z3,,,,Generic Invoice
Europ Assistance - Global Corporate Solutions ,,,ON,,,,,Generic Invoice
Evalu Med,108-2289 FAIRVIEW ST,BURLINGTON,ON,,,,,Generic Invoice
F. G. Claims Paralegal Professional Corporation,"1130 Dupont St
Suite 200",Toronto,ON,M6H 2A2,(416) 535-3385,(416) 535-9940,,Generic Invoice
Falconer Charney LLP,8 Prince Arthur Avenue,Toronto,ON,M5R 1A9,(416) 964-3408,(416) 929-8179,falconercharney@fcbarristers.com,Generic Invoice
Falconer Munro Tucci LLP,1500-11 King Street West,Toronto,ON,M5H 4C7,,,,Generic Invoice
FAS Benefits Administrators Ltd.,"9th floor, 9707-110 Street
Alberta",Edmonton,AB,T5K 2W8,1-800-770-2998,,,Generic Invoice
FAUST LAW ,,,ON,,,,,Generic Invoice
FAUST LAW FIRM,"340 COLLEGE ST., SUITE 400",TORONTO,ON,M5T 3A9,(416) 972-0900,(416) 972-1885,,Generic Invoice
Fearman's Pork - Sofina Foods Inc.,100 Commerce Valley Drive West,Markham,ON,L3T 0A1,,,,Generic Invoice
Ferguson DiMeo Lawyers,"Canada Southern Railway Station
750 Talbot Street, Suite 211",St Thomas,ON,N5P 1E2,(519) 633-8838,(519) 633-9361,,Generic Invoice
Fernanda W. Possebon,,,,,,,,Generic Invoice
Ferro & Company,100 King St West Suite 900,Hamilton,ON,L8P 1A2,,,,Generic Invoice
Filion Wakely LLP,"150 King Street West, Suite 2601 Box 32",Toronto,ON,M5H 4B6,,,,Generic Invoice
Financial Services Commission of Ontario,5160 Yonge Street 16th Floor,Toronto,ON,M2N 6L9,,,,Generic Invoice
Findlay Law Offices,"20 Hughson Street South, Suite 510",Hamilton,ON,L8N 2A1,(905) 522-9799,(905) 522-3098,,Generic Invoice
FIREMAN WOLFE LLP,"55 St. Clair West, Suite 415",Toronto,ON,M4V 2Y7,(416) 967-9100,(416) 967-1200,,Generic Invoice
Franklin Hall LLP,390 Bay Street Suite 1400,Toronto,ON,M5H 2Y2,(416) 366-4456,,,Generic Invoice
FUNDED,,,ON,,,,,Generic Invoice
Futerman Partners,45 St. Clair Avenue West Ste#702,Toronto,ON,M4V 1K9,(416) 925-4100,(416) 323-9132,,Generic Invoice
"GE-Hitachi Nuclear Energy Canada Inc. Attention Joan Murry, A/P",1160 Monaghan Road,Peterborough,ON,K9J 3V6,(705) 748-7256,(705) 748-7251,,Generic Invoice
General Electric,1025 Lansdown Ave,Toronto,ON,M6H 3Z6,(416) 583-4211,,,Generic Invoice
Geoffrey Bogo Law Professional Corporation,"390 Bay Street, Suite 200, ",Toronto,ON,M5H 2B1,(647) 777-4020,,,Generic Invoice
Georgian Bay General Hospital,1112 St Anderews Dr,Midland,ON,L4R 4P4,(705) 526-1300,,,Generic Invoice
Ghose Law Firm,1620 Albion Road,Toronto,ON,M9V 4B4,,,,Generic Invoice
Giffen LLP,P.O. Box 2396,Kitchener,ON,N2H 6M3,,,,Generic Invoice
Global Benefits,88 St. Regis Cresent St.,Toronto,ON,M3J 1Y8,,,,Generic Invoice
Global Egg Corporation ,"283 Horner Ave., ",Etobicoke,ON,M8Z 4Y4,(416) 354-4172,,,Generic Invoice
Global Medical Management Inc,"1300 Concord Terrace, Suite 300",Sunrise,FL,33323,(954) 370-6404,,,Generic Invoice
Globus Family of Brands,"3300 Bloor Street West
Center Tower, 4th Floor-Suite 2400",Toronto,ON,M8X 2X3,,,,Generic Invoice
GLUCKSTEIN,"395 BAY STREET SUITE 301, BOX 53",TORONTO,ON,M5G 2C2,(416) 408-4252,(416) 408-4235,,Generic Invoice
Gore Mutual Insurance Company,252 Dundas Street North,Cambridge,ON,N1R 5T3,(519) 623-1910,,,AISI Invoice
Government of Ontario,231 Dundas West Unit 201,London,ON,N6A 1H1,(519) 675-1012,(519) 675-1023,,Generic Invoice
Government of the Republic of Trinidad and Tobogo,Ministry of Health,,,,,,,Generic Invoice
"Gowland, Borris, Barristers, Solicitors","PO box 1629
371 Reid Street",Peterborough,ON,K9H 4G4,,,,Generic Invoice
Granite ClaimsSolutions,"Global Adjusters & Marine Surveyors
Suite 300, 5915 Airport Road",Mississauga,ON,L4V 1T1,(905) 740-2161,,,Generic Invoice
Graves Richard Harris LLP,"55 King st Suite 702
P.O. Box 1690",St Catharines,ON,L2R 7K1,,,,Generic Invoice
Graves Richard Harris LLP,Suite 511-30 Duke St. W,Kitchener,ON,N2H 3W5,,,,Generic Invoice
Great West Life,255 Dufferin Ave,London,ON,N6A 4K1,(800) 263-5742,,,AISI Invoice
Great West Life,"Place Bonaventure
Suite 5800
800 de La Gauchetiere West",Montreal,QC,H5A 1B9,(800) 663-2817,,,Generic Invoice
Great West Life,"Management Service Office
330 University Ave.",Toronto,ON,M5G 1R8,(416) 552-6851,,,Generic Invoice
Great West Life,55 Town Centre Street Suite 400,Scarborough,ON,M1P 5B5,(416) 279-5633,(416) 290-3779,,Generic Invoice
GREAT WEST LIFE,"1 King St W, Suite 801",Hamilton,ON,L8P 4X9,(905) 383-7879,(905) 383-3779,,Generic Invoice
Great West Life,"Suite 1400, 300 5th Ave SW",Calgary,ON,T2P 2L7,(866) 221-8524 Ext. 6803,(403) 234-7565,,Generic Invoice
Great West Life,"11 HOLLAND AVE, SUITE 300",OTTAWA,ON,K1Y 4W4,1-800-283-5375,,,Generic Invoice
Great West Life,1901 Scarth Street,Regina,ON,S4P 4L4,,,,Generic Invoice
Great West Life,400-55 Town Centre Court,Scarborough,ON,M1P 5B5,,,,Generic Invoice
Great West Life - DMSO,"PO Box 1055 
100 Osborne St N",Winnipeg,ON,R3C 2X4,,,,Generic Invoice
Great West Life Assurance,"Group Claims Department
PO Box 4408 ",Regina,SK,S4P 3W7,(866) 289-5675,,,Generic Invoice
Great West Life Assurance,"Health and Dental Benefits
PO Box 4076 Station A",Toronto,ON,M5W 3A3,(800) 461-6090,,,Generic Invoice
Great West Life Assurance,"P.O. Box 158, Station “M”",Halifax,NS,B3J 3V2,,,,Generic Invoice
Great West Life Assurance Co,PO Box 3050 Station Main,Winnipeg,MB,R3C 0E6,(800) 957-9777,,,Generic Invoice
Great West Life Assurance Company,Suite 900-1075 West Georgia Street,Vancouver,BC,V6E 4N4,,,,Generic Invoice
Great-West Life Assurance Company,"Montreal Disability Management Services
2001 University Street",Montreal,QC,H3A 1T9,,,,Generic Invoice
Great-West Life Assurance Company,PO BOX 62,ASTORVILLE,ON,P0H 1B0,,,,Generic Invoice
Great-West Life Assurance Company,10110-104 St.,Edmonton,AB,T5J 4R5,,,,Generic Invoice
Green Shield Canada,PO Box 1623,Windsor,ON,N9A 7B3,(888) 711-1119,,,AISI Invoice
Grenville Mutual Insurance Company,"3005 County Road 21, P.O. Box 10",Spencerville,ON,K0E 1X0,,,,Generic Invoice
GRILLO BARRISTERS ,3200 Dufferin St Suite 300,Toronto,ON,M6A 3B2,,,,Generic Invoice
GRILLONE LAW FIRM,21 Four Seasons Place Suite 600,Toronto ,ON,M9B 6J8,,,,Generic Invoice
Group Insurance Certificate,49 Industrial Drive,Elmira,ON,N3B 3B1,(519) 669-1632,(519) 669-1923,,Generic Invoice
GSNH Goldman Sloan Nash & Haber LLP,"480 University Avenue, Suite 1600",Toronto,ON,M5G 1V6,(416) 597-9922,(416) 597-3370,,Generic Invoice
Guarantee Company of North America,954 Dundas Street East,Woodstock,ON,N4S 7Z9,(800) 361-7096 Ext. 2705,(519) 539-2569,,AISI Invoice
Guardian Group,"1 Guardian Drive, Westmoorings
110612",Trinidad & Tobago,,,,,,Generic Invoice
Guelph General Hospital,115 Delhi Street,Guelph,ON,N1E 4J4,(519) 837-6440 X2765,(519) 837-6780,,Generic Invoice
Haliburton Kawartha Pine Ridge District Health Unit,200 Rose Glen Ave,Port Hope,ON,L1A 3V6,,,,Generic Invoice
Halton District School Board,JW Singleton Center 2050 Guelph Line,Burlington,ON,L7P 5A8,,,,Generic Invoice
Halton District School Board,PO Box 5005 STN LCD 1,Burlington,ON,L7R 3Z2,,,,Generic Invoice
Halton District School Board,3250 New Street,Burlongton,ON,L7N 1M8,,,,Generic Invoice
Hamilton International Airport,9300 Airport Road,Mount Hope,ON,,,,,Generic Invoice
Hamilton Wentworth District School Board,100 Main Street West,Hamilton,ON,L8P 1H6,,,,Generic Invoice
Hamilton Wentworth District School Board,20 Education Court,Hamilton,ON,L9A 0B9,(905) 527-5092 x 224,,,Generic Invoice
Hanford Lumbar Limited,45 Bethridge Road,Toronto,ON,M9W 1M9,(416) 743-5384,(416) 743-8193,,Generic Invoice
Harris Law Personal Injury Lawyers,"30 Duke Street West, Suite 701",Kitchener,ON,N2H 3W5,,,,Generic Invoice
Havergal College,1451 Avenue Rd,Toronto,ON,M5N 2H9,,,,Generic Invoice
Himelfarb,,,ON,,,,,Generic Invoice
Himelfarb Proszanski,480 University Ave Suite 1401,Toronto,ON,M5G 1V2,(416) 599-8080,,,Generic Invoice
Hopewell Logistics,9050 Airport Rd Ste 201,Brampton,ON,L6S 6G9,,,,Generic Invoice
Hopewell Logistics Inc.,255 Chrysler Drive,Brampton,ON,L6S 6C8,,,,Generic Invoice
Hotel-Dieu Grace Hosptial,1030 Ouellette Avenue,Windsor,ON,N9A 1E1,,,,Generic Invoice
"HOWIE, SACKS & HENRY LLP","401 BAY STREET, SUITE 2800
PO BOX 4",TORONTO,ON,M5H 2Y4,(416) 361-5990,(416) 361-0083,PSAHADEO@HSHLAWYERS.COM,Generic Invoice
Humber College,"Humber Institute of Technology & Advanced Learning , Room D225
205 Humber College Blvd.",Toronto,ON,M9W 5L7,,,,Generic Invoice
Humber College,"3199 Lake Shore Blvd West, Cottage D, D206A",Toronto,ON,M8V 1K8,,,,Generic Invoice
Humber College - School of Social and Community Services ,"3199 Lake Shore Blvd West, C205",Toronto,ON,M8V 1K8,,,,Generic Invoice
Humber College Sailing & Power Boating Centre,100 HUmber Bay Park Rd. West,Toronto,ON,M8V 3X7,(416) 252-7291,(416) 252-5393,tim.kendall@humber.ca,Generic Invoice
Humber Institute of Technology & Advanced Learning ,,,ON,,,,,Generic Invoice
Industrial Alliance Ins & Financial Inc.,PO Box 4643 Station A,Toronto,ON,M5W 5E3,(416) 585-8921,,,AISI Invoice
ING Insurance Company,"700 University Avenue, 16th Floor ",Toronto,ON,M5G 0A1,(416) 466-8500,(416) 440-4129,,AISI Invoice
Intact Financial Corporation,6925 Century Avenue#900,Mississauga,ON,L5N 0E3,,,,Generic Invoice
Intact Insurance,"700 University Avenue
16th Floor",Toronto,ON,M5G 1Z5,(416) 440-8500 Ext. 42514,,,AISI Invoice
Intact Insurance,1033 Barrydowne Rd. Ste. 206,Sudbury,ON,P3A 5Z9,,,,Generic Invoice
Intact Insurance,59 Westney Rd,Ajax,ON,L1S 2C9,,,,Generic Invoice
Intact Insurance,300-1400 St. Laurent Blvd,Ottawa,,K1K 4H4,,,,Generic Invoice
Intact Insurance,250 York Street,London,ON,N6A 6K2,,,,Generic Invoice
Intact Insurance - Accident Benefits Claims Representative II,"59 Westney Road South, Unit 8",AJAX,ON,L1S 2C9,1-866-386-0200,(905) 686-6728,yuvarna.yogalingam@intact.net ,Generic Invoice
J. W. Singleton Education Centre,2050 Guelph Line,Burlington,ON,L7P 5A8,,,,Generic Invoice
J.B. DONNELLY BARISTER AND SOLICITOR,1165 A ST CLAIR AVENUE WEST SUITE 201,TORONTO,ON,M6E 1B2,(416) 653-0311,(416) 653-6653,JBD@BDONNELLY.COM,Generic Invoice
James Pitcher Profession Corporation,420 Weber St North,Waterloo,ON,N2L 4E7,,,,Generic Invoice
Jane Conte Professional Corporation,711 Brock St. S,Whitby,ON,L1N 4L3,,,,Generic Invoice
JEVCO,922 THE EAST MALL SUITE 101,TORONTO,ON,M9B 6K1,(416) 362-0800,(416) 362-1808,,AISI Invoice
Jevco Insurance Company,"4 Robert Speck Parkway
Suite 100",Mississauga,ON,L4Z 1S1,,,,Generic Invoice
JEWELL RADIMISIS JORGE LLP,"4665 Yonge Street, Suite 204",Toronto,ON,M2N 0B4,(416) 862-7028,(416) 862-2135,,Generic Invoice
JEWISH FAMILY & CHILD,,,ON,,(416) 961-9344,,,Generic Invoice
Johnson Inc,1595 16th Ave #700,Richmond Hill,ON,L4B 3S5,1-866-773-5467,,,Generic Invoice
Johnson Law Offices (Johnson Haghani) ,2200-4950 Yonge Street ,Toronto,ON,M2N 6K1,(416) 364-0777,(416) 352-5174,,Generic Invoice
JOSEPH SIDIROPOULOS,"317 ADELAIDE STREET WEST, SUITE 1001",TORONTO,ON,M5V 1P9,(416) 979-9771,(888) 431-9296,,Generic Invoice
Joseph Sidiropoulos B&S,317 Adelaide st W Suite 1001,Toronto,ON,M5V 1P9,,,,Generic Invoice
Kahler Personal Injury Law,5775 Yonge St Suite 1800,Toronto,ON,M2M 4J1,(416) 739-7700,,,Generic Invoice
Karmax Heavy Stamping,333 Market Drive ,Milton,ON,L9T 4Z7,(905) 220-6852,,,Generic Invoice
KEVIN WOLF PROFESSIONAL CORPORATION,"165 AVENUE ROAD, SUITE 401",TORONTO,ON,M5R 3S4,(416) 365-1211,(416) 365-1218,,Generic Invoice
Keyfacts Life and Health Inc,"895 Don Mills Road, suite 104, Tower 2",Toronto,ON,M3C 1W3,,,,Generic Invoice
KING DUFFERIN FAMILY MEDICAL CLINIC,"1209 KING STREET WEST, UNIT 5",TORONTO,ON,M6K 1G2,(416) 536-2500,,,Generic Invoice
Kingsway General Insurance,"7120 Hurontario Street, Suite 700",Mississauga,ON,L5W 0B1,(905) 629-7888,(905) 629-5008,,AISI Invoice
Kitchen Simeson Law Firm LLP,"86 Simcoe Street South, PO Box 428",Oshawa,ON,L1H 7L5,,,,Generic Invoice
KRMC,"25 SHEPPARD AVE WEST
SUITE 1100",TORONTO,ON,M6J 3S3,(416) 218-9585,(416) 225-6943,,Generic Invoice
KRMC,"25 SHEPPARD AVE WEST
SUITE 1100",TORONTO,ON,M6J 3S3,(416) 225-8750,,,Generic Invoice
"KRONIS, ROTHSTAIN, MARGLES, CAPPEL","25 SHEPPARD AVE WEST, STE 700",TORONTO,ON,M2N 6S6,(416) 225-8750,(416) 225-6943,,Generic Invoice
L.V. Lomas Limited,99 Sumerlea Road,Brampton,ON,L6T 4V2,,,,Generic Invoice
La Capitale Insurance & Financial Services Inc.,7150 Derrycrest Drive,Mississauga,ON,L5W 0E5,1-888-816-9874,(905) 795-2313,,Generic Invoice
Lawrence H. Calenti Professional Corporation,451 Dupont Street,Toronto,ON,M5R 1W5,,,,Generic Invoice
LAXTON GLASS LLP ,390 BAY STREET SUITE 200,TORONTO,ON,M5H 2B1,(416) 363-2353,(416) 363-7112,,Generic Invoice
LCBO,2460 Stanfield Road,Mississauga,ON,L4Y 1S2,(905) 949-3513,,,Generic Invoice
LCBO,2000 Boundry Road,Whitby,ON,L1N 1S7,(905) 723-3417,(905) 579-0496,,Generic Invoice
LCBO,"55 Lakeshore Blvd, East",Toronto,ON,M5E 1A4,,,,Generic Invoice
LCBO,1100 Dearness Dr.,London,ON,N6E 1N9,,,,Generic Invoice
LCBO District 21 Office,174 Catharine Street,North Hamilton,ON,L8L 4S5,905 521 8502,(905) 521-1351,,Generic Invoice
Ledroit Beckett LLP,630 Richmond St,London,ON,N6A 3G3,(519) 673-4994 Ext. 15,,,Generic Invoice
"Legacy Law, P.A.",2810 SW 87th Ste. 903,Davie,FL,33328,(407) 929-6497,(954) 206-0246,,Generic Invoice
Leo J. Dillon Professional Corporation,"845 St. Clair Ave. West, 4th floor.",Toronto,ON,M6C 1C3,(416) 653-3819,,,Generic Invoice
Lerners LLP,80 Dufferin Ave,London,ON,N6A 4G4,,,,Generic Invoice
Les Centres d'Accueil Heritage,33 Hahn Place,Toronto,ON,M5A 4G2,(416) 365-3350 Ext. 262,,,Generic Invoice
Leuschen Brothers Limited,1151 Lorne St,Sudbury,ON,P3C 4T1,,,,Generic Invoice
LEVINTER & LEVINTER,"1 Richmond Street West
Suite 901",Toronto,ON,M5H 3W4,(416) 863-1930,(416) 361-6168,,Generic Invoice
Libyan Medical Committee in Canada,207-601 Harwood Avenue South ,Ajax,ON,L1S 3M1,,,,Generic Invoice
Libyan Medical Committee in Canada - East,207-601 Harwood Avenue South ,Ajax,ON,L1S 3M1,,,,Generic Invoice
Libyan Medical Committee in Canada - West,207-601 Harwood Avenue South ,Ajax,ON,L1S 3M1,,,,Generic Invoice
Litem Legal Services,1018 Finch Ave west Suite 300,Toronto,ON,M3J 3L5,,,,Generic Invoice
Little Morello Vettese Segreto LLP,1111 Creditstone Rd.,Vaughan,ON,L4K 4N7,(905) 660-7950,,,Generic Invoice
Loblaw Inc.,,,ON,,,,,Generic Invoice
Local 183 Trust Administration C/O Benefit Plan Administrators Ltd,1263 Wilson Ave. Suite 205,North York,ON,M3M 3G2,(416) 240-7487,,,AISI Invoice
LOFRANCO CHAGPAR CORREIRO PERSONAL INJURY LAWYERS,"4515 EBENEZER ROAD, SUITE 104",BRAMPTON,ON,L6P 2K7,(416) 223-8333,(416) 223-3404,,Generic Invoice
LOFRANCO CORRIERO,4950 YING ST SYUTE 600 P.O. BOX 174,NORTH YORK,ON,M2N 6H1,(416) 223-8333,,,Generic Invoice
LOMBARD CANADA,105 ADELAIDE STREET WEST 5TH FLOOR,TORONTO,ON,M5H 1P9,(416) 350-4640,(416) 350-4180,,AISI Invoice
M&M Insurance Broking Services Ltd,"39 Brissiere Village, Maraval 
P.O. Box 951, Port of Spain
Trinidad & Tobago",,,,,,,Generic Invoice
MacIsaac and Co. Barristers and Solicitors,3rd Fl. 1117 Wharf Street,Victoria,ON,V8W 1T7,,,,Generic Invoice
"Manion, Wilkins & Associates Ltd",626 - 21 Four seasons Place,Etobicoke,ON,M9B 0A6,(416) 234-3511,,,AISI Invoice
Manufactures Life Insurance,"2 Queen Street East, BOX 4606 Stn A",Toronto,ON,M5W 4Z2,(416) 687-4455,,,Generic Invoice
Manulife Financial,PO Box 1030,Halifax,NS,B3J 2X5,(800) 563-3274,,,AISI Invoice
Manulife Financial,2 Queen Street East 4th Floor PO Box 4606,Toronto,ON,M5W 4Z2,,,,Generic Invoice
Manulife Financial,"Disability Claims
P.O. Box 395, Place D’Armes",Montreal,QC,H2Y 3H1,,,,Generic Invoice
Manulife Financial - Customer Service Center,"600 Weber Street North
Delivery Station 600-G-C1000",Waterloo,ON,N2V 1K4,,,,Generic Invoice
Manulife Financial Group Life and Disability,"25 Water Street South
PO BOX 800",Kitchener,ON,N2G 4Y5,1-877-481-9169,(519) 579-3680,linda_stendel@manulife.com,Generic Invoice
Manulife Financial Health Claims,"PO Box 4214, Station A",Waterloo,ON,M5W 5M4,(800) 268-3763,,,AISI Invoice
Maplehurst Correctional Complex,"P.O. Box 10, 661 Martin Street",Milton,ON,L9T 2Y3,(905) 878-8141 Ext. 2213,(905) 878-5363,,Generic Invoice
March of Dimes Canada,50 King street East,Hamilton,ON,L8N 1A6,(905) 522-2253 Ext. 4323,(905) 522-2351,,Generic Invoice
March of Dimes Canada (pls do not use),"1550 Upper James
Suite 302",Hamilton,ON,L9B 2L6,,,,Generic Invoice
Margo Conlon and Associated Ltd.,"PO Box 21033
Campus Postal Outlet",Guelph,ON,N1G 4T3,,,,Generic Invoice
MARINE INSURANCE SERVICES,PO BOX 224,MIDLAND,ON,M9P 3R9,(705) 526-9541,(705) 526-1294,,Generic Invoice
MAZO CHOWBAY,"4711 YONGE ST, SUITE 704",TORONTO,ON,M2N 6K8,(416) 621-9111,,,Generic Invoice
McCague Borlack,"130 King Street West, ste2700 P.O.BOX 136",TORONTO,ON,M5X 1C7,(416) 860-7733,(416) 860-0003,,Generic Invoice
MCLARENS,5915 AIRPORT ROAD SUITE 300,MISSISSAUGA,ON,L4V 1T1,(416) 252-4431,,,AISI Invoice
McLEISH ORLANDO LLP,"1 QUEEN STREET EAST SUITE 1620, BOX 76",TORONTO,ON,M5C 2C5,(416) 366-3311,(416) 366-3330,pbrown@mcleishorlando.com,Generic Invoice
McNally/Gervan LLP,302 Waverly Street,Ottawa,ON,K2P 0W3,,,,Generic Invoice
MED-R,", 4th Floor",Las Vegas,NV,89101,(888) 400-4767,(702) 380-4286,,Generic Invoice
Medavie Blue Cross,185 The West Way Suite #1200 P.O. Box 200,Etobicoke,ON,M9C 5P1,(416) 626-2682 X2699,(416) 626-0400,,Generic Invoice
MEDAVIE BLUE CROSS,185 The West Mall Suite 1200 PO BOX 2000,Etobicoke,ON,M9C 5P1,(416) 626-2682,(416) 626-9481,,Generic Invoice
Medavie Blue Cross - Veteran Affair,"644 Main Street
PO Box 220",Monton,NB,E1C 8L3,,,,Generic Invoice
Medisys Health Group,"365 Evans Ave, Suite L5",Toronto,ON,M8Z 1K2,,,,Generic Invoice
Mimico Correctional Centre,130 Horner Ave,Etobicoke,ON,M8Z 4X8,(416) 314-9670,(416) 314-9606,,Generic Invoice
Mining Technologies International Inc.,"P.O. Box 2097, Stn. ‘A’",Sudbury,ON,P3A 4R8,,,,Generic Invoice
Ministry of Attorney General,"60 Queen St. West, 1st floor",Toronto,ON,M5H 2M4,(416) 327-5896,,,Generic Invoice
Ministry of Attorney General,47 Sheppard Ave. East ,Toronto,ON,M2N 0H2,,,,Generic Invoice
Ministry of Attorney General,155 Elm Street,Sudbury,ON,P3C 1T9,(705) 564-7769,(705) 564-7890,,Generic Invoice
Ministry of Attorney General - HR Strategic Business Unit,"720 Bay Street, 3rd floor",Toronto,ON,M7A 2S9,(416) 326-2466,,sydney.tran@ontario.ca,Generic Invoice
Ministry of Community & Social Services,"1201 Wilson Ave., Building B 5th floor",Downsview,ON,M3M 1J8,,,,Generic Invoice
Ministry of Community & Social Services,80 Grosvenor St 6th Floor ,Toronto,ON,M7A 1E9,,,,Generic Invoice
Ministry of Community & Social Services,720 Birchmount Road,Toronto,ON,M1E 5H3,(416) 325-0101,,,Generic Invoice
Ministry of Community & Social Services,"2 Bloor St West, 25th Floor",Toronto,ON,M7A 1E9,,,,Generic Invoice
Ministry of Community & Social Services,900 Bay St. McDonald Block M1-52,Toronto,ON,M7A 2E3,,,,Generic Invoice
Ministry of Community & Social Services,34 Simcoe St 2nd Floor,Barrie,ON,L4N 6T4,,,,Generic Invoice
Ministry of Community and Social Services,850 King St. West,Oshawa,ON,L1J 2L5,,,,Generic Invoice
Ministry of Community and Social Services,"Family Reponsibility Office
P.O Box 220",Downsview,ON,M3M 3A3,,,,Generic Invoice
"Ministry of Community and Social Services - Social Assistance Operations Division, Disability Adjudication Unit",2 Bloor Street West  Floor 11,Toronto,ON,M4W 3E2,,,,Generic Invoice
"Ministry of Community and Social Services, Central East Region, Ontario Disability Support Program","17310 Yonge Street, Unit 1",Newmarket,ON,L3Y 7R8,,,,Generic Invoice
Ministry of Community Safety & Corr.  Services,"Central East Correctional Centre
541 Hwy 36, PO Box 450",Lindsay,ON,K9V 4S6,,,,Generic Invoice
Ministry of Community Safety & Corr. Service,181 Elm Street West,Sudbury,ON,P3C 1T8,(705) 564-4147,(705) 564-4157,,Generic Invoice
Ministry of Community Safety & Corr. Service,"Emergency Management Ontario
77 Wellesley Street West
Box 222",Toronto,ON,M7A 1N3,,,,Generic Invoice
Ministry of Community Safety & Corr. Service,"Toronto Detention Centre
55 Civic Road",Toronto,ON,M1L 2K9,,,,Generic Invoice
Ministry of Community Safety & Corr. Service,25 Grosvenor Street 11th Floor,Toronto,ON,M7A 1Y6,,,,Generic Invoice
Ministry of Community Safety & Corr. Service,1090 Speers Road,Oakville,ON,L6L 2X4,(905) 845-8571,(905) 845-9516,,Generic Invoice
Ministry of Community Safety & Corr. Service,"Central East Correctional Centre
541 Hwy 36, PO Box 4500",Lindsay,ON,K9V 4S6,(705) 328-6009,(705) 328-6011,,Generic Invoice
Ministry of Community Safety & Corr. Service,700 N. Christina St.,Sarnia,ON,N7V 3C2,,,,Generic Invoice
Ministry of Community Safety & Corr. Service,2nd Floor 1355 Upper Lane,Thorald,ON,L2V 4A6,,,,Generic Invoice
Ministry of Community Safety & Corr. Service,"Ste 200
109 Railside Road",Don Mills,ON,M3A 1B2,,,,Generic Invoice
Ministry of Community Safety & Corr. Service,160 Horner Ave,Toronto,ON,M8Z 4X8,,,,Generic Invoice
Ministry of Community Safety & Corr. Service,"PO Box 4950
111 Disco Road",Rexdale,ON,M9W 5L6,(416) 675-1806 Ext. 4225,(416) 675-2745,,Generic Invoice
Ministry of Community Safety & Corr. Service,2244 Innes rd,Ottawa,ON,K1B 4C4,(613) 824-6080 Ext. 200,,,Generic Invoice
Ministry of Community Safety & Corr. Service,"SLVCTC/Brockville Jail 1804 Hwy#2 east, PO Box 8000",Brockville,ON,K6V 5W7,,,,Generic Invoice
Ministry of Community Safety & Corr. Service,"Toronto South Detention Centre
160 Horner Ave",Toronto,ON,M8Z 0C2,,,,Generic Invoice
Ministry of Economical Developement and Trade,"Investment and Trade Division
250 Yonge St, 35th floor",Toronto,ON,M7A 2H1,,,,Generic Invoice
Ministry of Education,"900 Bay Street
19th floor, Mowat Block",Toronto,ON,M7A 1L2,,,,Generic Invoice
Ministry of Energy and Infrastructure,7 Queens Park  Cr. East,Toronto,ON,M7A 1Y7,,,,Generic Invoice
Ministry of Entrepreneurship and Youth Partnership,56 Wellesley St W 5th floor,Toronto,ON,M7A 2E7,,,,Generic Invoice
Ministry of Enviornment,230 Westney Road South 5th Floor,Ajax,ON,L1S 7J5,,,,Generic Invoice
Ministry of Environment,40 St Clair Ave West,Toronto,ON,M4V 1M2,(416) 314-1108,(416) 314-9313,,Generic Invoice
Ministry of Environment,3232 White Oak Road,London,ON,N6E 1L8,,,,Generic Invoice
Ministry of Environment,"135 St. Clair Avenur West, 11th floor",Toronto,ON,,(416) 327-9536,,,Generic Invoice
Ministry of Evaluation and Training Office,"Bldg A Lower Level Rm B-051
1201 Wilson Ave",Toronto,ON,M3M 1J8,,,,Generic Invoice
Ministry of Finance,"95 Grosvenor Street
3rd Floor",Toronto,ON,M7A 1Z1,(416) 212-1440,,,Generic Invoice
Ministry of Finance,40 St Clair Ave West,Toronto,ON,M4V 1M2,(416) 314-9209,(416) 314-9220,,Generic Invoice
Ministry of Finance - Ontario Internal Audit Division,"777 Bay St., 25th Floor",Toronto,ON,M5G 2E5,,,,Generic Invoice
Ministry of Government and Consumer Services,199 Larch Street,Sudbury,ON,P3E 5P9,,,,Generic Invoice
Ministry of Government HROntario,777 Memorial Avenue,Orillia,ON,L3V 7V3,,,,Generic Invoice
Ministry of Government Services,"77 Wellesley St W 9th floor, Ferguson Block",Toronto,ON,M7A 1N3,,,,Generic Invoice
Ministry of Government Services,25 Heakes Lane,Kingston,ON,K7M 9B1,,,,Generic Invoice
Ministry of Government Services,,,ON,,,,,Generic Invoice
Ministry of Government Services,,,ON,,,,,Generic Invoice
"Ministry of Government Services - Centre for Employee Health, Safety and Wellness","77 Wellesley Street W, 7 Floor",Toronto,ON,M7A 1N3,,,,Generic Invoice
"Ministry of Government Services - Centre for Employee Health, Safety and Wellness","777 Memorial Ave, 1st Floor",Orillia,ON,L3V 7V3,,,,Generic Invoice
"Ministry of Government Services - Centre for Employee Health, Safety and Wellness - Health and Safety Services","33 King Street West, 2nd Floor",Oshawa,ON,L1H 8H5,(905) 433-6114,,,Generic Invoice
Ministry of Government Services - Employee Relations Division - HR Ontario,"231 Dundas St., 2nd floor",London,ON,N6A 1H1,,,,Generic Invoice
Ministry of Government Services - EQAO,"2 Carlton Street, Suite 1200",Toronto,ON,M5B 2M9,,,,Generic Invoice
Ministry of Government Services - Family Responsibility Office,"1201 Wilson Avenue (Building B) , Downsview ",Toronto,ON,M3M 1J8,,,,Generic Invoice
Ministry of Health and Long Term Care,"5700 Yonge Street, 7the Floor",Toronto,ON,M2M 4K5,,,,Generic Invoice
Ministry of Health and Long Term Care,"430A Brittania Road East 
Floor 1 Mississauga ON
L4Z 1X9",,ON,,,,,Generic Invoice
Ministry of Health and Long Termcare,"1075 Bay St. , 13the Floor",Toronto,ON,M5S 2B1,,,,Generic Invoice
Ministry of Health and Long-Term Care,"159 Cedar Street, Suite 402",Sudbury,ON,P3E 6A5,,,,Generic Invoice
Ministry of Health and Long-Term Care,"5700 Yonge St, 9th Floor",Toronto,ON,M2M 4K5,,,,Generic Invoice
Ministry of Health and Long-Term Care,"Consent and Capacity Board
151 Bloor Street West, 10th Floor",Toronto,ON,M5S 2T5,(416) 327-2853,,,Generic Invoice
Ministry of Health and Long-Term Care,80 Grosvenor Street 8th Floor,Toronto,ON,M7A 1R3,,,,Generic Invoice
Ministry of Health and Long-Term Care,"Corporate Services Division
151 Bloor Street West, 10th Floor",Toronto,ON,M5S 2T5,,,,Generic Invoice
Ministry of Labour,"60 Wilson Ave
3rd Floor, Suite 303",Timmins,ON,P4N 2S7,(705) 268-3454,(705) 267-3633,,Generic Invoice
Ministry of Labour,"33 King Street West, 2nd Floor",Oshawa,ON,L1H 8H5,,,,Generic Invoice
Ministry of Labour,"505 University Ave, 19th Floor",Toronto,ON,M7A 1T7,,,,Generic Invoice
Ministry of Labour,5001 Yonge St Suite 1600,Toronto,ON,M7A 0A3,,,,Generic Invoice
Ministry of Labour,"123 Edward Street, Suite 1300",Toronto,ON,M5G 1E2,,,,Generic Invoice
Ministry of Labour,400 University Ave 9th Floor,Toronto,ON,M7A 1T7,(416) 325-8634,,,Generic Invoice
Ministry of Labour,2275 Midland Ave Unit 1,Toronto,ON,M1P 3E7,,,,Generic Invoice
"Ministry of Labour, Labour Relations Solutions Division, Dispute Resolution Services Branch, Collective Bargaining Unit",400 University Avenue,Toronto,ON,M7A 1T7,,,,Generic Invoice
Ministry of Municipal Affairs and Housing,"777 Bay St, 16th Floor",Toronto,ON,M5G 2E5,,,,Generic Invoice
Ministry of Municipal Affairs and Housing,777 Bay St. 2nd floor,Toronto,ON,M5G 2E5,,,,Generic Invoice
Ministry Of Revenue,"33 King Street West, 7th floor",Oshawa,ON,L1H 8H5,(905) 433-6605,,,Generic Invoice
Ministry Of Revenue,55 Athol St.,Oshawa,ON,L1H 1J8,,,,Generic Invoice
Ministry of Revenue ,"77 City Centre Drive, 2nd floor  L5B 1M5  ",Mississauga,ON,L5B 1M5,,,,Generic Invoice
Ministry of Revenue ,231 Dundas St ,London,ON,N6A 1H1,,,,Generic Invoice
Ministry of Revenue,200-5 Park Home Avenue,Toronto,ON,M2N 6W8,,,,Generic Invoice
Ministry Of Revenue – Internal Audit,"777 Bay Street, 2nd floor, Suite 2400",Toronto,ON,M5G 2E5,,,,Generic Invoice
Ministry of the Attorney,,,ON,,,,,Generic Invoice
Ministry of the Attorney General,595 Bay St. Suite 800,Toronto,ON,M5G 2M6,(416) 314-3505,,,Generic Invoice
Ministry of the Attorney General,7305 Woodbine Ave. Suite 780,Markham,ON,L3R 3V7,,,,Generic Invoice
Ministry of the Attorney General,1091 Gorham Street Floor 2,New Market,ON,L3Y 8X7,(905) 836-1853,,,Generic Invoice
Ministry Of The Attorney General,"393 University Avenue, 19th Floor",Toronto,ON,M5G 1E6,(416) 327-7497,,,Generic Invoice
Ministry of the Attorney General,"1000 Finch Ave West, Floor 1",North York,ON,M3J 2V5,,,,Generic Invoice
Ministry of the Attorney General,"720 Bay Street, 9th Floor",Toronto,ON,M5G 2K1,,,,Generic Invoice
Ministry of the Attorney General,"20 Dundas Street West
Floor 5",Toronto,ON,M5G 2C2,,,,Generic Invoice
Ministry of the Attorney General - FRO,"444 Yonge Street, 2nd Floor
Toronto, ON",,ON,M5B 2H7,,,,Generic Invoice
Ministry of Tourism and Culture,777 Bay St. 6th Floor,Toronto,ON,M7A 2J4,(416) 326-7067,(416) 326-7079,,Generic Invoice
Ministry of Training - Ergo,"900 Bay Street, Mowat Block, 7th Floor",Toronto,ON,M5S 1A0,(416) 325-4018,(416) 327-1853,,Generic Invoice
"Ministry of Training, Colleges and Universities",25 St. Clair Ave. East ,Toronto,ON,M4T 3A4,(416) 927-7818,,,Generic Invoice
"Ministry of Training, Colleges and Universities","33 Bloor St. East 2nd floor, suite 200",Toronto,ON,M7A 2S3,,,,Generic Invoice
"Ministry of Training, Colleges and Universities","900 Bay St. Mowat Bloick,
18th Floor",Toronto,ON,M7A 1L2,(416) 212-6597,,,Generic Invoice
Ministry of Transportation,"900 Bay St, MacDonald Block",Toronto,ON,M7A 2C1,,,,Generic Invoice
Ministry of Transportation,777 Bay Street 30th Floor,Toronto,ON,M7A 2J8,(416) 585-7352,,,Generic Invoice
Ministry of Transportation,"Program Development & Evaluation Branch
Evaluation, Training & Documentation Office
1201 Wilson Avenue, Bldg. A, Room 051",Downsview,ON,M3M 1J8,,,,Generic Invoice
"Ministry of Transportation, Corporate Services, Communications, Editorial & Corporate Services","900 Bay Street, Floor 1",Toronto,ON,M7A 1N3,,,,Generic Invoice
Ministry of Youth and Children Service,200 First Avenue West,Thunder Bay,ON,P1B 3B9,,,,Generic Invoice
Ministry of Youth and Children Service,8500 McLaughlin Road South,Brampton,ON,L6Y 0N6,(905) 454-5000 Ext. 5333,,,Generic Invoice
Mississauga Community Legal Services,130 Dundas St East Suite 504,Mississauga,ON,L5A 3V8,,,,Generic Invoice
"MITCHELL, BARDYN & ZALUCKY","3029 BLOOR STREET WEST, SUITE 200",TORONTO,ON,M8X 1C5,(416) 234-9111,,,Generic Invoice
Modatek Systems,400 Chisholm Drive,Milton,ON,L9T 5V6,(905) 864-3400 Ext. 3228,,,Generic Invoice
Molson Canada,1 Carlingview Drive,Toronto,ON,M9W 5E5,(416) 675-1786,(416) 675-8673,,Generic Invoice
Morell Kelly Professional Corp.,182 Victoria St S,Kitchener,ON,N2G 2B9,(519) 743-4443,,,Generic Invoice
Morneau Shepell,,,ON,,,,,Generic Invoice
Morrison Reist Barristers and Solicitors,279 Queen St South,Kitchener,ON,N2G 1W4,(519) 576-5351,,,Generic Invoice
Motors Insurance Corporation,8500 Leslie Street,Thornhill,ON,L3T 7M8,(905) 882-3907,(866) 247-8139,,Generic Invoice
Mount Sinai Hospital,"Ocupational Health Department
600 University Ave",Toronto,ON,M5G 1X5,(416) 586-4800 X4551,(416) 361-2663,,Generic Invoice
MSH INTERNATIONAL,"300, 999 - 8th Street SW",Calgary,AB,T2R 1N7,,,,Generic Invoice
MTL Barrister Professional Corporation,"366 Bay Street, 5th Floor",TORONTO,ON,M5H 2B2,,,,Generic Invoice
MUNN LAW FIRM,"69 Main Street, Suite 1",Milton,ON,L9T 2Y6,(905) 693-9977,(905) 693-8477,,Generic Invoice
Murray H Miskin,"380 Armour Rd, #263",Peterborough,ON,K9H 7L7,,,,Generic Invoice
NAL Insurance Inc,361 Dufferin Ave,London,ON,N6B 1Z5,,,,Generic Invoice
National Disability Management,#207 - 55 Northfield Drive East,Waterloo,ON,N2K 3T6,1-866-837-7140,1-866-873-1858,,Generic Invoice
National Health Insurance Company,"Daman (PJSC)
PO Box 128888",Abu Dhabi,,,,,,Generic Invoice
NEINSTEIN & ASSOCIATES,1200 BAY STREET SUITE 700,TORONTO,ON,M5R 2A5,(416) 920-4242,(416) 923-8358,,Generic Invoice
Nelligan O’Brien Payne LLP,"50 O’Connor St., Suite 1500",Ottawa,ON,K1P 6L2,(613) 231-8212,(613) 364-4152,,Generic Invoice
"NEVEREAUX, STOKES, NOLAN, FERNANDEZ & LEONARD, P.C",,,ON,,,,,Generic Invoice
Nordique Insurance Company,"4 Robert Speck Parkway, Suite 100",Mississauga,ON,L4Z 1S1,(905) 277-9350,(905) 277-5008,,Generic Invoice
Norqique Insurance Co.,700 University Aveue ,TORONTO,ON,M5G 1Z5,(416) 932-0044,,,Generic Invoice
Northern Ontario School of Medicine,935 RAMSEY LK RD,SUDBURY,ON,P3E 2C6,,,,Generic Invoice
NRCS,404-101 Worthington St East,North Bay,ON,P1B 1G5,,,,Generic Invoice
OBRADOVICHLAW,"Toronto Dominion Centre
95 Wellington Street West
P.O. Box 4, Suite 901",Toronto,ON,M5J 2N7,(416) 862-0997,(416) 862-0980,,Generic Invoice
Occupational Risk Management Group,Suite 3300-250 Yonge Street,Toronto,ON,M5B 2L7,,,,Generic Invoice
Office of the Worker Adviser,70 Foster Drive Suite #480 ,Sue Sault Marie,ON,P6A 6V4,,,,Generic Invoice
Ontario Disability Support Program,"Disability Adjudication Unit
Box B18",Toronto,ON,M7A 1R3,(416) 326-0417,,,Generic Invoice
Ontario Mutual Insurance Association,"350 Pinebush Road PO Box 3187
",Cambridge,ON,N3H 4S6,,,,Generic Invoice
Ontario Nurses' Association,"85 Grenville Street, Suite 400",Toronto,ON,M5S 3A2,(416) 964-8833,,,Generic Invoice
Ontario Provincial Police,777 Memorial Avenue,Orillia,ON,L3V 7V3,(705) 327-6713,(705) 329-6188,,Generic Invoice
Ontario Securities Commission,20 Queen Street West 19th Floor,Toronto,ON,M5H 3S8,,,,Generic Invoice
OPP,6355 WESTMINISTER DRIVE,London,ON,N6P 1T2,,,,Generic Invoice
OPP Central Region Headquarters,777 Memorial ave,Orillia,ON,L3V 7V3,(705) 329-6626,(705) 329-6188,,Generic Invoice
ORGANIZATIONAL HEALTH INC.,,,ON,,,(416) 240-7047,,Generic Invoice
Organizational Solutions Inc,2186 Cmountain Grove Avenue #253,Burlington,ON,L7P 4X4,,,,Generic Invoice
Orillia Soldier' Memorial Hospital,170 Colborne Street West,Orillia,ON,L3V 2Z3,,,,Generic Invoice
Ottawa Community Housing Corporation,380 Murray Street,Ottawa,ON,K1N 8W1,(613) 789-4305,(613) 789-3571,,Generic Invoice
Ottawa Police Services,245 Greenbank Road,Nepean ,ON,K2H 8K9,,,,Generic Invoice
O’Flynn & Weese LLP,65 Bridge Street East,Belleville,ON,K8N 1L8,,,,Generic Invoice
PACE Law Firm,"296 The West Mall, Sixth Floor",Toronto,ON,M9C 4Z4,,,,AISI Invoice
Pace Law Firm,"300 The East Mall, 5th Floor ",Toronto,ON,M9B 6B7,,,,Generic Invoice
Pappas,1600 Steeles Av W Suite 221,Vaughan,ON,L4K 4M2,,,,Generic Invoice
Participation Lodge,307 – 11th Avenue,Hanover,ON,N4N 3T3,,,,Generic Invoice
Patey Law Group,1043 Bloor St West,Toronto,ON,M6H 1M4,,,,Generic Invoice
PAUL MAND LAWYERS,155 REXDALE BLVD SUITE 905,TORONTO,ON,M9W 5Z8,(416) 740-2000,(416) 740-3480,,Generic Invoice
PBAS GROUP,61 INTERNATIONAL BLVD STE #100,TORONTO,ON,M9W 6K4,(416) 674-2600,(416) 674-9968,,AISI Invoice
Peel District School Board,5650 Hurontario Street,Mississauga,ON,L5R 1C6,,,,Generic Invoice
Pembridge Insurance Company,"27 Allstate Parkway, Suite 100",Markham,ON,L3R 5P8,,,,Generic Invoice
Penncorp Life Insurance Company,"Disability Claims
7150 Derrycrest Drive",Mississauga,ON,L5W 0E5,,,,Generic Invoice
Petker & Associate Professional Corporation,295 Weber St North,Waterloo,ON,N2J 3H8,,,,Generic Invoice
Pilot Insurance Co.,90 Eglinton Ave. West,Toronto,ON,M4R 2E4,(416) 487-5141,(416) 487-6905,communications@pilot.ca,AISI Invoice
Pioneer Manor,960 Nortre Dame Ave,Sudbury,ON,P3A 2T4,(705) 674-4455,,,Generic Invoice
Piramal Healthcare Canada Ltd,110 Industrial Parkway N. PO box 308,Aurora,ON,L4G 3H4,(905) 727-9417 Ext. 349,(905) 727-7545,,Generic Invoice
PLASP Childcare Services,121 Brunel Road,Mississauga,ON,L4Z 3E9,,,,Generic Invoice
Polluck Law Professional Coproration,130 Bridgeland Ave Suite 200,Toronto,ON,M6A 1Z4,,,,Generic Invoice
Potestio Law Firm,401 Bay St. Suite 1400,Toronto,ON,M5H 2Y4,(416) 203-2429,,,Generic Invoice
Powerstream,161 Cityview Blvd,Vaughan,ON,L4H 0A9,,,,Generic Invoice
Practice Maxx,"Southbank Healthcare Centre Inc.
#3, 2430 Bank St.",Ottawa,ON,K1V 0T7,,,,Generic Invoice
PRESZLER LAW FIRM,65 QUEEN STREET WEST STE#400,TORONTO,ON,M5H 2M5,(416) 364-2000,(416) 364-7027,,Generic Invoice
Preszler Law Firm,151 Eglinton Avenue West,Toronto,ON,M4R 1A6,(416) 364-2000,(416) 364-7027,,Generic Invoice
PRIMMUM INSURANCE,304 THE EAST MALL SUITE 600,ETOBICOKE,ON,M9B 6E2,(416) 233-7590,(416) 734-2813,,AISI Invoice
PRIVATE,,,ON,,,,,Generic Invoice
Professional Corporation of Lawyers,"491 Eglinton Ave West, Suite 300",Toronto,ON,M4N 1A8,,,,Generic Invoice
"Prouse, Dash & Crouch",50 Queen Street West,Brampton,ON,L6X 4H3,,,,Generic Invoice
Rapid Interactive Disability Management Ltd.,"716 Gordon Baker Road, Suite 106",Toronto,ON,M2H 3B4,,,,Generic Invoice
RASTIN & ASSOCIATES,"128 WELLINGTON STREET W
SUITE 210",BARRIE,ON,L4N 8J6,(705) 722-6393,,,Generic Invoice
RBC Insurance Co.,"6880 Financial Dr.
Tower 1, 3rd Floor",Mississauga,ON,L5N 7Y5,(905) 816-2794,(905) 813-4793,,AISI Invoice
RBC Insurance Life & Health Claims Department,"483 Bay Street, North Tower, 10th Floor",Toronto,ON,M5G 2E7,,,,Generic Invoice
RBC Life Insurance Company,"Life and Health Claims Department
4435 Station A",Toronto,ON,M5W 5Y8,(905) 201-0419,(905) 294-0517,,Generic Invoice
RCMP,345 Harry Walker Parkway S.,Newmarket,ON,L3Y 8P6,(905) 953-7685 Ext. 235,(905) 953-7688,,Generic Invoice
RCMP,"Benefits Coordinator at RCMP
Health Care Services",Ottawa,ON,,,,,Generic Invoice
Red Cross Care Partners,5700 Cancross Court,Mississauga,ON,L5R 3E9,,,,Generic Invoice
Region Municipality of Halton,"690 Dorval Drive
6th Floor",Oakville,ON,L6K 3X9,,,,Generic Invoice
"RESNICK, PARSONS, TABERNER","SUITE 1917, VICTORIA TOWER
25 ADELAIDE ST EAST",TORONTO,ON,M5C 3A1,(416) 863-6026,(416) 863-9334,,Generic Invoice
REYBROEK BARRISTERS PROFESSIONAL CORPORATION,3200 DUFFERIN ST. SUITE 210 ,TORONTO,ON,M6A 3B2,,,,Generic Invoice
"REZNICK, PARSONS, TABERNER","SUITE 1917, VICTORIA TOWER
25 ADELAID ST EAST",TORONTO,ON,M5C 3A1,(416) 863-6026,(416) 863-9334,,Generic Invoice
Richmond Hill Public Library,1 Atkinson Street,Richmond Hill,ON,L4C 0H5,,,,Generic Invoice
Rizzotto Law Firm,"Suite 700, 3700 Steeles Ave West",Vaughan,ON,L4L 8K8,,,,Generic Invoice
Roadtrek Motorhomes Inc.,100 Shirley Avenue,Kitchener,ON,N2B 2E1,,,,Generic Invoice
Robert J. Hooper Professional Corporation,128 Hughson Street North,Hamilton,ON,L8R 1G6,,,,Generic Invoice
Rogers Partners LLP,"181 University Avenue
Suite 1900",Toronto,ON,M5H 3M7,(416) 594-4500,(416) 594-9100,,Generic Invoice
ROMAIN LAW PROFESSIONAL CORPORATION BARRISTER AND SOLICITOR,"191 Eglinton Ave E, Suite 202",Toronto,ON,M4P 1K1,,,,Generic Invoice
ROMANO LAW FIRM,4580 DUFFERIN STREET STE 308,TORONTO,ON,M3H 5Y2,(416) 661-0359,,,Generic Invoice
Romeo Pitaro Personal Injury Lawyers,"9050 Yonge St., Suite 102",Richmond Hill,ON,L4C 9S6,,,,Generic Invoice
Royal and Sun Alliance Insurance Company of Canada,"Sheridan Insurance Centre
2225 Erin Mills Parkway Suite 1000",Mississauga,ON,L5K 2S9,(800) 263-9280,(905) 403-2329,,AISI Invoice
Royal Embassy of Saudi Arabia,"Saudi Health Division - US & Canada
601 New Hampshire Ave NW",Washington,DC,20037,,,,Generic Invoice
Royal Victoria Regional Health Centre,201 Georgian Drive,Barrie,ON,L4M 6M2,,,,Generic Invoice
"RP&S Rabbitt, Pitzer & Snodgrass P.C.","100 South Fourth Street
Suite 400","St. Louis, Missouri",,*1* 4*15545,(314) 421-5545,(314) 421-3144,,Generic Invoice
RS REFERRED TO WORKER REHAB,,,ON,,,,,Generic Invoice
Runnymede Healthcare Centre,625 Runnymede Road,Toronto,,M6S 3A3,,,,Generic Invoice
RWAM Insurance,49 Industrial Drive,Elmira,ON,N3B 3B1,(877) 888-7926,,,AISI Invoice
Ryder-Burbidge Hurley Fasano Professional Corporation,89 Clarence St. ,Kingston,ON,,,,,Generic Invoice
Ryerson University,"Human Resources
350 Victoria St.",Toronto,ON,M5B 2K3,416 979 5000,416 598 5944,,Generic Invoice
Réadaptation Universelle Ergonomie,"2044, Rue Fleury Est suite 205",Montreal,QC,H2B 1J2,,,,Generic Invoice
SABS Management,245 College St,Sudbury,ON,P3C 4V4,,,,Generic Invoice
Samis & Company,"400 University Avenue, Suite 1600",Toronto,ON,M5G 1S5,,,,Generic Invoice
Sandra Dimeo Professional Corporation,,,ON,,,,,Generic Invoice
SBMB Law,"10800 Yonge Street, 3rd Floor",Richmond Hill,ON,L4C 3E4,,,,Generic Invoice
Scarfone Hawkins LLP,,,ON,,,,,Generic Invoice
SCM Adjusters Canada Ltd,3155 howard Ave Suite 202,Windsor,ON,N8X 4Y8,(800) 471-7636,(519) 258-6628,,AISI Invoice
SCM Adjusters Canada Ltd,"48 Alliance Blvd, Bldg A #110",Barrie,ON,L4M 5K3,(705) 733-4005,,,AISI Invoice
SCM Adjustors Ltd. ,"2 Lansing Square, Suite 700",North York,ON,M2J 4P8,(416) 491-7900,(416) 491-7212,,AISI Invoice
SCM ClaimsPro,1550 Enterprise Road Suite 125,Mississauga,ON,L4W 4P4,(905) 564-0654 Ext. 238,(905) 565-0009,,AISI Invoice
Scottish & York Ins. Co.,2206 Eglinton Ave. East,Scarborough,ON,M1L 4S8,(416) 288-1800,,,AISI Invoice
Security National Ins. Co.,401-2161 Yonge St. ,Toronto,ON,M4S 3A6,,,,AISI Invoice
SERVICE CANADA,PO BOX 2020 STN MAIN,CHATHAM,ON,N7M 6B2,,,,Generic Invoice
Share Lawyers,3442 Yonge St,Toronto,ON,M4N 2M9,,,,Generic Invoice
Shekter Dychtenberg LLP,390 Bay St Suite 2900,Toronto,ON,M5H 2Y2,,,,Generic Invoice
Sheraton Gateway Hotel,6300 Silverdart Drive,Mississauga,ON,L5P 1C4,,,,Generic Invoice
Shuh Cline & Grossman,17 Weber St West,Kitchener,ON,N2H 3Y9,,,,Generic Invoice
Simcoe County District School Board,1170 Hwy 26,Midhurst,ON,L0L 1X0,(705) 734-6363,(705) 728-2305,,Generic Invoice
SINGER KWINTER,1033 BAY STREET SUITE 214,TORONTO,ON,M5S 3A5,1-866-285-6927,(416) 961-6760,INFO@SINGERKWINTER.COM,Generic Invoice
SNOLAB,"1039 Regional Road 24
Creighton Mine #9",Lively,ON,P3Y 1N2,,,,Generic Invoice
Soben Ltd. ,"150 Consumers Road, Suite 302",Toronto,ON,M2J 1P9,(416) 498-8338,,,AISI Invoice
SOFINA,,,,,,,,Generic Invoice
Sokoloff Conte,99 Scollard Street,Toronto,ON,M5R 1G4,(416) 966-4878,,,Generic Invoice
Sokoloff Lawyers,99 Scollard Street,Toronto,ON,M5R 1G4,(416) 966-4878,(416) 966-8865,,Generic Invoice
Source Rehabilitation,"1177 Barrydowne Road, Suite 201",Sudbury,ON,P3A 3V4,,,,Generic Invoice
SREBROLOW LEBOWITZ SPADAFORA,439 UNIVERSITY AVE SUITE 2200,TORONTO,ON,M5G 1Y8,(416) 351-9222,(416) 351-9953,,Generic Invoice
SSQ Financial-Claims Secure,"43 Elm St.
Suite 200",Sudbury,ON,P3C 1S4,(888) 513-4464,,,Generic Invoice
SSQ Life Insurance Company Inc,500-110 Sheppard Avenue East,Toronto,ON,M2N 6Y8,,,,Generic Invoice
St Michael's Hospital,30 Bond Streeet,Toronto,ON,M5B 1W8,(416) 864-6060 X3110,(416) 864-5405,,Generic Invoice
St Paul's L'Amoreaux Centre,3333 Finch Ave East,Toronto,ON,M1W 2R9,,,,Generic Invoice
Stacey Electric,179 Bartley Drive Unit B,Toronto,ON,M4A 1E8,(416) 752-6380,(416) 752-2128,,Generic Invoice
Standard Life,"100 Sheppard Ave, Suite 200",Toronto,ON,M2N 6N5,,,,Generic Invoice
Standard Life Insurance,"PO Box 4105
Postal Station A",Toronto,ON,M5W 2P4,(800) 499-4415,,,AISI Invoice
State Farm Insurance,"PO Box 5060, Station Main",Aurora,ON,L5G 0B4,(416) 763-4181,(888) 863-3040,,AISI Invoice
STEPHEN M WERBOWYJ,1199 THE QUEENSWAY,TORONTO,ON,M8Z 1R7,,,,Generic Invoice
STEPHENSONS LLP,"15 TORONTO ST, SUITE 202",TORONTO,ON,M5C 2E3,(416) 599-7900,,,Generic Invoice
Sudbury Jail,181 Elm Street,Sudbury,ON,P3C 1T8,(705) 564-4150,,,Generic Invoice
Sudbury Regional Hospital,41 Ramsey Lake Rd,Sudbury,ON,P3E 5J1,,,,Generic Invoice
Sullivan Mahoney LLP,,,ON,,,,,Generic Invoice
Sun Life Assurance Co. of Canada,"Group Claims
PO Box 3417 Station D",Ottawa,ON,K1P 1G1,(800) 361-6212,,,AISI Invoice
Sun Life Assurance Company of Canada,"P.O. Box 100, Station C",Kitchener,ON,N2G 3W9,(866) 760-4458,(866) 209-7215,,Generic Invoice
Sun Life Assurance Company of Cananda,P.O.Box 11037 Stn. CV,Montreal,QC,H3C 4W8,(855) 631-9230,,,Generic Invoice
Sun Life Financial,"P.O. BOX 950,STATION A",Toronto,ON,M5W 1G5,(866) 217-1038,(866) 639-7851,,AISI Invoice
Sun Life Financial,50 Westmount Road North,Waterloo,ON,N2L 2R5,,,,Generic Invoice
Sun Life Financial,740-1100 Melville Street,Vancouver,BC,V7X 1A6,,,,Generic Invoice
Sun Life Financial - Group Disaibility Claim,1155 Metcalfe St 7th Floor,Montreal,ON,H3B 2V9,,,,Generic Invoice
Sun Life Financial Group Health Claims Office,P.O. Box 4023 Station A,Toronto,ON,M5W 2P7,(800) 361-6212,(877) 786-5433,,AISI Invoice
Sunnybrook Health Sciences Centre,2075 Bayview Avenue ,Toronto,ON,,(416) 480-6100 Ext. 83976,,,Generic Invoice
TD General,"304 The East Mall, 6th Floor",Etobicoke,ON,M9B 6E2,(416) 734-2658,,,AISI Invoice
TD General Insurance Company,5045 South Service Road 5th Floor,Burlington,ON,L7L 5Y7,,,,Generic Invoice
TD HOME & AUTO INSURANCE,"2161 Yonge Street, 4th Floor",Toronto,ON,M4S 3A6,,,,Generic Invoice
TD Insurance Home and Auto,"3650 Victoria Park, 9th Floor",North York,ON,M2H 3P7,(416) 744-3650,(416) 774-3120,,AISI Invoice
TD Meloche Monnex,"2161 Yonge St. 
Suite. 401",Toronto,ON,M4S 3A6,(416) 484-1112,(416) 545-6049,,AISI Invoice
TD Security National,"2161 Yonge St., Ste. 708",Toronto,ON,M4S 3A6,,,,AISI Invoice
Teachers Life Insurance,#C-916 The East Mall,Toronto,ON,M9B 6K1,,,,Generic Invoice
Technical Standards and Safety Authority,"14th floor, Centre Tower
3300 Bloor Street West",Toronto,ON,M8X 2X4,,,,Generic Invoice
Tecnhology Insurance,"5915 Airport Rd, Suite 300",Mississauga,ON,L4V 1T1,,,,Generic Invoice
Teknion Limited,1150 Flint Road,Toronto,ON,M3J 2J5,,,,Generic Invoice
Teva Canada Limited,30 Novopharm Court,Toronto,ON,M1B 2K9,,,,Generic Invoice
The Co-operators,#205-1614 Dundas Street East,Whitby,ON,L1N 8Y8,(905) 434-4042,(905) 434-8419,,AISI Invoice
THE CO-OPERATORS,14 CEDAR POINTE DRIVE ,BARRIE,ON,L4N 5R7,1-800-665-8152,1-888-894-0444,,AISI Invoice
The College of Physicians and Surgeons of Ontario,80 College St,Toronto,ON,M5G 2E2,,,,Generic Invoice
The Dominion of Canada General Insurance,"1275 North Service Road, West",Oakville,ON,L6M 3M3,,,,AISI Invoice
The Dominion of Canada's Trusted Insurance Company,,,ON,,(905) 469-5268,,,Generic Invoice
The Equitable Life Insurance Canada,1 Westmount Road North,Waterloo,ON,N2J 4C7,,,,Generic Invoice
The Hincks-Dellcrest Centre,"1645 Sheppard Ave., W",North York,ON,M3M 2X4,,,,Generic Invoice
The Hospital for Sick Children,555 University Avenue,Toronto,ON,M5G 1X8,(416) 813-7654 x4533,,chery.fackoury@sickkids.ca,Generic Invoice
The Office of the Worker Adviser,"305 Milner Avenue, Suite 918",Scarborough,ON,M1B 3V4,,,,Generic Invoice
The Office of the Worker Adviser,"155 Frobisher Drive
Unit G(213)",Waterloo,ON,N2V 2E1,,,,Generic Invoice
The Personal Insurance,3 Robert Speck Parkway,Mississauga,ON,L4Z 3Z9,(905) 306-3569,(905) 306-4551,,AISI Invoice
The Personal Insurance Company,"P.O. Box 7065, Station A",Mississauga,ON,L5A 4K7,,,,Generic Invoice
The Prescott-Russell United County,"59 Rue Court, P.O. Box 304",L'Orignal,ON,K0B 1K*,,,,Generic Invoice
The Regional Municipality of Halton,"Human Resource Services
1151 Bronte Road",Oakville,ON,L6M 3L1,,,,Generic Invoice
The Regional Municipality of Halton,"690 Dorval Drive,
6th Floor",Oakville,ON,L6K 3X9,,,,Generic Invoice
The Terry Law Firm,"301 2nd Ave NE., Suite A
Puyalllup, WA
98372",,,,,,,Generic Invoice
The University of Western Ontario,"School of Physical therapy, Elborn College – Room 1588
1201 western Road",London,ON,N6G 1H1,,,,Generic Invoice
Thompson Dorfman Sweatman LLP,Canwest Place 2200-201 Portage Ave,Winnipeg,ON,R3B 3L3,,,,Generic Invoice
THOMPSON ROGERS,,,ON,,,,,Generic Invoice
"Thompson, Toose, McLean & Elgin","30 St. Patrick Street, Suite 1100",Toronto,ON,M5T 3A3,(416) 591-1131,,,Generic Invoice
Thomson Rogers,"Suite 3100, 390 Bay Street",Toronto,ON,M5H 1W2,(416) 868-3100,(416) 868-3134,,Generic Invoice
TIC Travel Insurance ,2100- 250 Yonge Street,Toronto,ON,M5B 2L7,,,,Generic Invoice
TKATCH & ASSOCIATES,464 YONGE STREET SUITE 200,TORONTO,ON,M4Y 1W9,(416) 968-0333,,,Generic Invoice
Tony Lafazanis/Barrister,"180 Dundas St W, Suite 1250",Toronto,ON,M5G 1Z8,(416) 979-1770,,,Generic Invoice
Torkin Manes Cohen Arbus LLP,151 Yonge Street Suite 1500,Toronto,ON,M5C 2W7,(416) 863-1188,(416) 863-0305,,Generic Invoice
Toronto Catholic District School Board,80 SHEPPARD AVE EAST,TORONTO,ON,M2N 6E8,(416) 222-8282 Ext. 2319,,,Generic Invoice
Toronto East Detention Centre,55 Civic Road,Scarborough,ON,M1L 2K9,,,,Generic Invoice
Toronto FC,,,ON,,,,,Generic Invoice
Toronto General Electric,1025 Lansdown Ave,Toronto,ON,M6H 2Z6,(416) 583-4211,(416) 583-4210,,Generic Invoice
Toronto Grace Health Centre,650 Church Street,Toronto,ON,M4Y 2G5,416 925 2251,416 925 7431,,Generic Invoice
Toronto Rehabilitation Institute,550 University Avenue,Toronto,ON,M5G 2A2,(416) 597-3422,(416) 597-3026,,Generic Invoice
Toronto Transit Commission,"Attn: Supervisor AP
Finance Department - AP Section
Purchase Order #PU 77727
1900 Yonge St",Toronto,ON,M4S 1Z2,,,,Generic Invoice
Toronto Transit Commission,"Queensway Bus Garage
400 Evans Ave",Toronto,ON,M8Z 1K6,,,,Generic Invoice
Toronto Transit Commission,"Birchmount Garage
400 Danforth Road",Scarborough,ON,M1L 3X6,,,,Generic Invoice
Toronto Transit Commission - Human Resources Department,1138 Bathurst Street,Toronto,ON,M5R 3H2,,,,Generic Invoice
Toronto Transit Committee,1900 Yonge St,Toronto,ON,M4S 1Z2,(416) 393-3464,(416) 338-0125,,AISI Invoice
Town of Richmond Hill,225 East Beaver Creek Road,Richmond Hill,ON,L4B 3P4,(905) 771-5531,(905) 771-2449,,Generic Invoice
Toyota Motor Manfacturing,"1055 Fountain Street North
P.O. Box 5002",Cambridge,ON,N3H 5K2,,,,Generic Invoice
Trafalgar Insurance Company,59 Westney Rd,Ajax,ON,L1S 2C9,,,,Generic Invoice
Trafalgar Insurance Company,1033 Barrydowne Rd. Ste. 206,Sudbury,,P3A 5Z9,,,,Generic Invoice
TTC Insurance,1900 Yonge Street,Toronto,ON,M4S 1Z2,(416) 393-3362,,,Generic Invoice
U of T Wellness,"263 McCaul Street, 2nd Floor",Toronto,ON,M5T 1W7,(416) 946-0536,(416) 971-3052,,Generic Invoice
UHN Lab Medicine Program – Pathology,TGH,,ON,,,,,Generic Invoice
UHN Occupational Health,"Toronto General Hospital
200 Elizabeth St. NR, 3-310",Toronto,ON,M5G 2C4,(416) 340-4271,(416) 340-4117,,Generic Invoice
UHN Workplace Wellness,"Toronto General Hospital
585 University Ave. 
RM 1NU 168",Toronto,ON,M5G 2N2,(416) 340-4800 Ext. 2578,,,Generic Invoice
Unifund Assurance,"1595 16th Ave., Ste. 700",Richmond Hill,ON,L4B 3S5,(905) 764-4151,(905) 882-9145,,AISI Invoice
Union Gast Ltd. A Spectra Energy Company,50 Kell Dr. N. PO Box 2001,Chatham,ON,N7M 5M1,,,,Generic Invoice
United Steelworkers Local 6500,66 Brady Street,Sudbury,ON,P3E 1C8,,,,Generic Invoice
Universal Workers Union,1263 Wilson Ave Suite 200,Toronto,ON,M3M 3G3,(416) 241-1183,,,Generic Invoice
UNIVERSAL WORKERS UNION,1263 WILSON AVE,TORONTO,ON,M3M 3G3,,,,Generic Invoice
University Of Waterloo,"Health Services
200 University Avenue West,",Waterloo,ON,N2L 3G1,,,,Generic Invoice
Univerty of Toronto - Health & Well Being,263 McCaul St,Toronto,ON,M5T 1W7,(416) 978-4670,(416) 971-3052,,Generic Invoice
Upper Grand District School Board,500 VICTORIA ROAD NORTH,GUELPH,ON,N1E 6K2,,,,Generic Invoice
Vale,337 Power Street,Copper Cliff,ON,P0M 1N0,,,,Generic Invoice
Vanbreda International,"Medical Claims Center
PO Box 69",2140 ANTWERP,,,,,,Generic Invoice
VANDERVENNEN LEHRER,45 ST. NICHOLAS STREET,TORONTO,ON,M4Y 1W6,(416) 963-8405,(416) 925-8122,,Generic Invoice
Vanier Centre for Women,"Box 1040, 655 Martin St",Milton,ON,L9T 5E6,(905) 876-8300 Ext. 4361,(905) 876-7734,,Generic Invoice
VANLER INSURANCE ADJUSTERS LTD,4308 VILLAGE CENTRE COURT,MISSISSAUGA,ON,L4Z 1S2,(905) 277-3383,(905) 277-2617,,AISI Invoice
VERBANAC LAW FIRM PROFESSIONAL CORP,"470 Weber Street N, Suite 205B ",Waterloo,ON,N2L 6J2,,,,Generic Invoice
Victoria University (U of T),73 Queen's Park Crescent,toronto,ON,M5S 1K7,(416) 585-4558,(416) 585-4556,,Generic Invoice
Vista Disability Management Inc.,601 Milner Ave Suite 200,Toronto,ON,M1B 2K4,,,,Generic Invoice
Walsh McLuskie Doyle Barristers and Solicitors,181 University Ave Suite 2200,Toronto,ON,M5H 3M7,,,,Generic Invoice
Waterloo Catholic District School Board,"35 Weber St West, Unit A,
PO Box 901116",Kitchener,ON,N2G 4G2,(519) 578-3660,(519) 578-2818,,Generic Invoice
Waterloo Region Community Legal Services,"450 Frederick Street, Unit 101",Kitchener,ON,N2H 2P5,,,,Generic Invoice
Waterloo Region District School Board,51 Ardelt Ave,Kitchener,ON,N2C 2R5,(519) 570-0003 Ext. 4129,(519) 742-1364,,Generic Invoice
Watermark Insurance,1020 Brock Road South Suite 2005,Pickering,ON,L1W 3H2,,,,Generic Invoice
Wawanesa Insurance,203-20 Erb St West,Waterloo,ON,N2L 1T2,(519) 886-4320,(519) 747-0138,,AISI Invoice
Wawanesa Mutual Insurance,100 - 4110 Yonge Street,Toronto,ON,M2P 2B7,,,,AISI Invoice
"Weaver Simmons Barristers, Solicitors, Notaries","Brady Square
233 Brady St",Sudbury,ON,P3B 4H5,,,,Generic Invoice
West Parry Sound Health Center,6 Albert Street,Parry Sound,ON,P2A 3A4,,,,Generic Invoice
Western Assurance,2225 Erin Mills Parkway,Mississauga,ON,L5K 2S9,(800) 387-2934,(905) 829-6540,,AISI Invoice
Whitten & Lublin Professional Corporation,"141 Adelaide St W, Suite 420",Toronto,ON,M5H 3L5,(416) 640-2667,,,Generic Invoice
Wilfrid Laurier University,202 Reginal Street North,Waterloo,ON,N2J 3B6,,,,Generic Invoice
"Will Barristers LLP, Morin & Miller",322 Muskoka Road 3 North,Huntsville,ON,P1H 1C4,,,,Generic Invoice
Will Davidson LLP,220 Bay St Suite 1400,Toronto,ON,M5J 2W4,,,,Generic Invoice
William Kelly Professional Corp,197 Bond St East,Oshawa,ON,L1G 1B4,,,,Generic Invoice
Wise & Associates,202-1240 Bay St,Toronto,ON,M5R 2A7,,,,Generic Invoice
"WMCP, LLC",10800 Biscayne Boul Sute 580,Miami,FL,33161,,,,Generic Invoice
Wolf Kimelman ,1396 Eglinton Avenue West,Toronto,ON,M6C 2E4,(416) 365-1211,(416) 365-1218,,Generic Invoice
Wolfe Lawyers Professional Corporation ,"20 Eglinton Ave. W., Suite 1400",Toronto,ON,M4R 1K8,,,,Generic Invoice
WORKSAFE BC,,,BC,,1-888-967-5377,(604) 279-7590,,Generic Invoice
WSIB,"200 Front St. West
Suite 101",Toronto,ON,M5V 3J1,(416) 344-1000,(416) 344-4684,,WSIB Invoice (Ontario)
WSIB Appeals Tribunal,"505 University Ave, 7th Floor",Toronto,ON,M5G 2P2,,,,Generic Invoice
Xstrata Nickel,6 Edison Road,Falconbridge,ON,P0M 1S0,,,,Generic Invoice
York University,"4700 Keele Street,East Office Building, Suite C6",Toronto,ON,M3J 1P3,,,,Generic Invoice
ZAYOUNA LAW FIRM,"10 FOUR SEASONS PLACE, 
SUITE 510",TORONTO,ON,M9B 6H7,(416) 622-0003,,,Generic Invoice
Zeppieri & Associates,851 WILSON AVE,TORONTO,ON,M3K 1E6,(416) 631-9811,(416) 631-6170,,Generic Invoice
Zuber & Company LLP Litigation Counsel,"100 Simcoe St, Suite 303",Toronto,ON,M5H 3G2,,,,Generic Invoice
ZURICH INSURANCE,"400 UNIVERSITY AVENUE 
23 FLOOR",TORONTO,ON,M5G 1S7,,,,Generic Invoice
Zwiebel & Associates,29 Bangor Road,North York,ON,M2N 2J8,,,,Generic Invoice
